<?xml version="1.0" encoding="UTF-8"?>
<gpx creator="StravaGPX" version="1.1" xmlns="http://www.topografix.com/GPX/1/1" xmlns:xsi="http://www.w3.org/2001/XMLSchema-instance" xsi:schemaLocation="http://www.topografix.com/GPX/1/1 http://www.topografix.com/GPX/1/1/gpx.xsd">
 <metadata>
  <name>Barco &amp; Santa Giuliana</name>
  <author>
   <name>Lorenzo Zanei</name>
   <link href="https://www.strava.com/athletes/572826"/>
  </author>
  <copyright author="OpenStreetMap contributors">
   <year>2020</year>
   <license>https://www.openstreetmap.org/copyright</license>
  </copyright>
  <link href="https://www.strava.com/routes/3540339508401859554"/>
 </metadata>
 <trk>
  <name>Barco &amp; Santa Giuliana</name>
  <link href="https://www.strava.com/routes/3540339508401859554"/>
  <type>running</type>
  <trkseg>
   <trkpt lat="46.00555000000001" lon="11.323300000000001">
    <ele>434.11000000000007</ele>
   </trkpt>
   <trkpt lat="46.005840000000006" lon="11.323860000000002">
    <ele>433.21000000000004</ele>
   </trkpt>
   <trkpt lat="46.00614000115155" lon="11.324384997064724">
    <ele>433.11</ele>
   </trkpt>
   <trkpt lat="46.006440000000005" lon="11.324910000000001">
    <ele>433.18</ele>
   </trkpt>
   <trkpt lat="46.00698716201878" lon="11.325765663506623">
    <ele>432.55</ele>
   </trkpt>
   <trkpt lat="46.00753431765209" lon="11.3266213439409">
    <ele>432.38000000000005</ele>
   </trkpt>
   <trkpt lat="46.00808146689966" lon="11.327477041303299">
    <ele>432.02</ele>
   </trkpt>
   <trkpt lat="46.00862860976125" lon="11.328332755594278">
    <ele>431.77000000000004</ele>
   </trkpt>
   <trkpt lat="46.00917574623663" lon="11.329188486814296">
    <ele>431.17</ele>
   </trkpt>
   <trkpt lat="46.00972287632552" lon="11.330044234963816">
    <ele>430.84000000000003</ele>
   </trkpt>
   <trkpt lat="46.010270000000006" lon="11.330900000000002">
    <ele>432.18</ele>
   </trkpt>
   <trkpt lat="46.010110000000005" lon="11.33111">
    <ele>432.14000000000004</ele>
   </trkpt>
   <trkpt lat="46.01066" lon="11.33195">
    <ele>430.19</ele>
   </trkpt>
   <trkpt lat="46.011120000000005" lon="11.332830000000001">
    <ele>430.01000000000005</ele>
   </trkpt>
   <trkpt lat="46.01146000000001" lon="11.33364">
    <ele>429.86</ele>
   </trkpt>
   <trkpt lat="46.01178" lon="11.334520000000001">
    <ele>429.90000000000003</ele>
   </trkpt>
   <trkpt lat="46.0120500021013" lon="11.33521499659428">
    <ele>429.88000000000005</ele>
   </trkpt>
   <trkpt lat="46.01232" lon="11.33591">
    <ele>429.94000000000005</ele>
   </trkpt>
   <trkpt lat="46.01232" lon="11.3359">
    <ele>429.93</ele>
   </trkpt>
   <trkpt lat="46.01275500538877" lon="11.337009991310385">
    <ele>430.07</ele>
   </trkpt>
   <trkpt lat="46.01319" lon="11.338120000000002">
    <ele>430.20000000000005</ele>
   </trkpt>
   <trkpt lat="46.01333" lon="11.338610000000001">
    <ele>430.28000000000003</ele>
   </trkpt>
   <trkpt lat="46.01341" lon="11.339">
    <ele>430.53000000000003</ele>
   </trkpt>
   <trkpt lat="46.01281" lon="11.33904">
    <ele>430.41</ele>
   </trkpt>
   <trkpt lat="46.012800000000006" lon="11.339960000000001">
    <ele>429.72</ele>
   </trkpt>
   <trkpt lat="46.012710003883974" lon="11.340905001644455">
    <ele>429.46</ele>
   </trkpt>
   <trkpt lat="46.012620000000005" lon="11.34185">
    <ele>429.3</ele>
   </trkpt>
   <trkpt lat="46.012570000000004" lon="11.341990000000001">
    <ele>429.33000000000004</ele>
   </trkpt>
   <trkpt lat="46.0125" lon="11.342070000000001">
    <ele>429.46</ele>
   </trkpt>
   <trkpt lat="46.01236" lon="11.342160000000002">
    <ele>429.54</ele>
   </trkpt>
   <trkpt lat="46.012260000000005" lon="11.3422">
    <ele>429.54</ele>
   </trkpt>
   <trkpt lat="46.01216" lon="11.342160000000002">
    <ele>429.54</ele>
   </trkpt>
   <trkpt lat="46.01182000000001" lon="11.342170000000001">
    <ele>429.05</ele>
   </trkpt>
   <trkpt lat="46.01176" lon="11.34224">
    <ele>429.05</ele>
   </trkpt>
   <trkpt lat="46.011720000000004" lon="11.342350000000001">
    <ele>429.05</ele>
   </trkpt>
   <trkpt lat="46.01169" lon="11.343290000000001">
    <ele>428.08</ele>
   </trkpt>
   <trkpt lat="46.01158" lon="11.34403">
    <ele>427.67</ele>
   </trkpt>
   <trkpt lat="46.01151" lon="11.3443">
    <ele>427.67</ele>
   </trkpt>
   <trkpt lat="46.01146000000001" lon="11.34464">
    <ele>427.53000000000003</ele>
   </trkpt>
   <trkpt lat="46.01146000000001" lon="11.344800000000001">
    <ele>427.36</ele>
   </trkpt>
   <trkpt lat="46.011340000000004" lon="11.34496">
    <ele>428.18000000000006</ele>
   </trkpt>
   <trkpt lat="46.011250000000004" lon="11.345020000000002">
    <ele>428.58</ele>
   </trkpt>
   <trkpt lat="46.01077" lon="11.345080000000001">
    <ele>431.90000000000003</ele>
   </trkpt>
   <trkpt lat="46.01061000000001" lon="11.345020000000002">
    <ele>432.42</ele>
   </trkpt>
   <trkpt lat="46.010490000000004" lon="11.34501">
    <ele>433.40000000000003</ele>
   </trkpt>
   <trkpt lat="46.01037" lon="11.345030000000001">
    <ele>435.09000000000003</ele>
   </trkpt>
   <trkpt lat="46.00985000000001" lon="11.345270000000001">
    <ele>437.14000000000004</ele>
   </trkpt>
   <trkpt lat="46.009800000000006" lon="11.34525">
    <ele>437.14000000000004</ele>
   </trkpt>
   <trkpt lat="46.00976000000001" lon="11.345080000000001">
    <ele>437.39000000000004</ele>
   </trkpt>
   <trkpt lat="46.00976000000001" lon="11.34506">
    <ele>437.39000000000004</ele>
   </trkpt>
   <trkpt lat="46.00968" lon="11.344280000000001">
    <ele>438.25</ele>
   </trkpt>
   <trkpt lat="46.00961" lon="11.343910000000001">
    <ele>439.04</ele>
   </trkpt>
   <trkpt lat="46.00934" lon="11.343200000000001">
    <ele>442.64000000000004</ele>
   </trkpt>
   <trkpt lat="46.00876" lon="11.34307">
    <ele>448.70000000000005</ele>
   </trkpt>
   <trkpt lat="46.00867" lon="11.343010000000001">
    <ele>449.54</ele>
   </trkpt>
   <trkpt lat="46.008520000000004" lon="11.343380000000002">
    <ele>451.01</ele>
   </trkpt>
   <trkpt lat="46.008390000000006" lon="11.34346">
    <ele>451.52000000000004</ele>
   </trkpt>
   <trkpt lat="46.00776666668904" lon="11.343503334309545">
    <ele>454.25000000000006</ele>
   </trkpt>
   <trkpt lat="46.00714333336169" lon="11.343546667642448">
    <ele>458.35</ele>
   </trkpt>
   <trkpt lat="46.00652" lon="11.34359">
    <ele>462.62</ele>
   </trkpt>
   <trkpt lat="46.005636666678086" lon="11.34364666847743">
    <ele>470.38</ele>
   </trkpt>
   <trkpt lat="46.00475333332816" lon="11.343703335145122">
    <ele>480.55</ele>
   </trkpt>
   <trkpt lat="46.003870000000006" lon="11.343760000000001">
    <ele>492.49</ele>
   </trkpt>
   <trkpt lat="46.00331500010834" lon="11.343805000443368">
    <ele>497.54</ele>
   </trkpt>
   <trkpt lat="46.00276" lon="11.343850000000002">
    <ele>504.48</ele>
   </trkpt>
   <trkpt lat="46.002480000000006" lon="11.344130000000002">
    <ele>516.0600000000001</ele>
   </trkpt>
   <trkpt lat="46.00212000377504" lon="11.343194993819523">
    <ele>511.33000000000004</ele>
   </trkpt>
   <trkpt lat="46.001760000000004" lon="11.342260000000001">
    <ele>515.5000000000001</ele>
   </trkpt>
   <trkpt lat="46.00148" lon="11.34163">
    <ele>515.64</ele>
   </trkpt>
   <trkpt lat="46.001340000000006" lon="11.34124">
    <ele>514.7900000000001</ele>
   </trkpt>
   <trkpt lat="46.001200000000004" lon="11.34098">
    <ele>514.0</ele>
   </trkpt>
   <trkpt lat="46.001090000000005" lon="11.341600000000001">
    <ele>520.7</ele>
   </trkpt>
   <trkpt lat="46.00086" lon="11.342020000000002">
    <ele>527.09</ele>
   </trkpt>
   <trkpt lat="46.00056000000001" lon="11.34252">
    <ele>533.75</ele>
   </trkpt>
   <trkpt lat="46.000130000000006" lon="11.343330000000002">
    <ele>544.3800000000001</ele>
   </trkpt>
   <trkpt lat="46.00009000000001" lon="11.34351">
    <ele>545.85</ele>
   </trkpt>
   <trkpt lat="46.00009000000001" lon="11.343760000000001">
    <ele>548.09</ele>
   </trkpt>
   <trkpt lat="46.00000000000001" lon="11.344220000000002">
    <ele>553.6800000000001</ele>
   </trkpt>
   <trkpt lat="45.99973000000001" lon="11.34468">
    <ele>558.4</ele>
   </trkpt>
   <trkpt lat="45.9996" lon="11.34473">
    <ele>561.9200000000001</ele>
   </trkpt>
   <trkpt lat="45.999390000000005" lon="11.34473">
    <ele>565.37</ele>
   </trkpt>
   <trkpt lat="45.99902" lon="11.34468">
    <ele>572.19</ele>
   </trkpt>
   <trkpt lat="45.998960000000004" lon="11.344710000000001">
    <ele>572.85</ele>
   </trkpt>
   <trkpt lat="45.998920000000005" lon="11.34476">
    <ele>573.46</ele>
   </trkpt>
   <trkpt lat="45.99889" lon="11.34486">
    <ele>574.0200000000001</ele>
   </trkpt>
   <trkpt lat="45.998720000000006" lon="11.34566">
    <ele>579.22</ele>
   </trkpt>
   <trkpt lat="45.99869" lon="11.345730000000001">
    <ele>579.69</ele>
   </trkpt>
   <trkpt lat="45.99862" lon="11.345820000000002">
    <ele>580.79</ele>
   </trkpt>
   <trkpt lat="45.99850000000001" lon="11.34585">
    <ele>582.6800000000001</ele>
   </trkpt>
   <trkpt lat="45.99832000000001" lon="11.345770000000002">
    <ele>587.6</ele>
   </trkpt>
   <trkpt lat="45.99822" lon="11.34567">
    <ele>587.6</ele>
   </trkpt>
   <trkpt lat="45.99806" lon="11.34551">
    <ele>592.44</ele>
   </trkpt>
   <trkpt lat="45.997800000000005" lon="11.34506">
    <ele>599.16</ele>
   </trkpt>
   <trkpt lat="45.99752" lon="11.34482">
    <ele>604.63</ele>
   </trkpt>
   <trkpt lat="45.99745" lon="11.344740000000002">
    <ele>609.4200000000001</ele>
   </trkpt>
   <trkpt lat="45.99738000000001" lon="11.344700000000001">
    <ele>609.4200000000001</ele>
   </trkpt>
   <trkpt lat="45.9973" lon="11.344750000000001">
    <ele>611.2</ele>
   </trkpt>
   <trkpt lat="45.997260000000004" lon="11.34481">
    <ele>611.2</ele>
   </trkpt>
   <trkpt lat="45.997170000000004" lon="11.345020000000002">
    <ele>615.2</ele>
   </trkpt>
   <trkpt lat="45.9971" lon="11.345320000000001">
    <ele>619.36</ele>
   </trkpt>
   <trkpt lat="45.99694" lon="11.34556">
    <ele>622.8100000000001</ele>
   </trkpt>
   <trkpt lat="45.996900000000004" lon="11.3457">
    <ele>626.1800000000001</ele>
   </trkpt>
   <trkpt lat="45.996840000000006" lon="11.34604">
    <ele>630.72</ele>
   </trkpt>
   <trkpt lat="45.9966" lon="11.3465">
    <ele>638.1</ele>
   </trkpt>
   <trkpt lat="45.99644000000001" lon="11.346670000000001">
    <ele>643.21</ele>
   </trkpt>
   <trkpt lat="45.996050000000004" lon="11.34698">
    <ele>650.46</ele>
   </trkpt>
   <trkpt lat="45.99548" lon="11.347610000000001">
    <ele>664.97</ele>
   </trkpt>
   <trkpt lat="45.995340000000006" lon="11.347900000000001">
    <ele>667.49</ele>
   </trkpt>
   <trkpt lat="45.99532000000001" lon="11.348030000000001">
    <ele>669.35</ele>
   </trkpt>
   <trkpt lat="45.99535" lon="11.3482">
    <ele>672.2900000000001</ele>
   </trkpt>
   <trkpt lat="45.99542" lon="11.348370000000001">
    <ele>675.44</ele>
   </trkpt>
   <trkpt lat="45.995650000000005" lon="11.348590000000002">
    <ele>686.6600000000001</ele>
   </trkpt>
   <trkpt lat="45.99606000000001" lon="11.34889">
    <ele>691.4300000000001</ele>
   </trkpt>
   <trkpt lat="45.996320000000004" lon="11.349010000000002">
    <ele>700.89</ele>
   </trkpt>
   <trkpt lat="45.99636" lon="11.349010000000002">
    <ele>704.7800000000001</ele>
   </trkpt>
   <trkpt lat="45.996500000000005" lon="11.348880000000001">
    <ele>708.37</ele>
   </trkpt>
   <trkpt lat="45.996570000000006" lon="11.348880000000001">
    <ele>708.37</ele>
   </trkpt>
   <trkpt lat="45.99662000000001" lon="11.34904">
    <ele>712.7500000000001</ele>
   </trkpt>
   <trkpt lat="45.99665" lon="11.349210000000001">
    <ele>717.5100000000001</ele>
   </trkpt>
   <trkpt lat="45.996660000000006" lon="11.34941">
    <ele>720.9300000000001</ele>
   </trkpt>
   <trkpt lat="45.99672" lon="11.34975">
    <ele>725.5800000000002</ele>
   </trkpt>
   <trkpt lat="45.996790000000004" lon="11.3498">
    <ele>727.7300000000001</ele>
   </trkpt>
   <trkpt lat="45.99685" lon="11.34978">
    <ele>727.7300000000001</ele>
   </trkpt>
   <trkpt lat="45.99691000000001" lon="11.349590000000001">
    <ele>736.7</ele>
   </trkpt>
   <trkpt lat="45.997020000000006" lon="11.349480000000002">
    <ele>736.7</ele>
   </trkpt>
   <trkpt lat="45.997240000000005" lon="11.349430000000002">
    <ele>741.57</ele>
   </trkpt>
   <trkpt lat="45.997490000000006" lon="11.34956">
    <ele>746.32</ele>
   </trkpt>
   <trkpt lat="45.99767000000001" lon="11.349720000000001">
    <ele>749.97</ele>
   </trkpt>
   <trkpt lat="45.997710000000005" lon="11.3497">
    <ele>750.97</ele>
   </trkpt>
   <trkpt lat="45.99772" lon="11.349630000000001">
    <ele>753.08</ele>
   </trkpt>
   <trkpt lat="45.997690000000006" lon="11.349540000000001">
    <ele>753.08</ele>
   </trkpt>
   <trkpt lat="45.997730000000004" lon="11.3495">
    <ele>755.26</ele>
   </trkpt>
   <trkpt lat="45.997820000000004" lon="11.34946">
    <ele>755.26</ele>
   </trkpt>
   <trkpt lat="45.997910000000005" lon="11.34955">
    <ele>759.8300000000002</ele>
   </trkpt>
   <trkpt lat="45.997980000000005" lon="11.349710000000002">
    <ele>762.8900000000001</ele>
   </trkpt>
   <trkpt lat="45.99814000000001" lon="11.349900000000002">
    <ele>767.95</ele>
   </trkpt>
   <trkpt lat="45.99832000000001" lon="11.34998">
    <ele>770.61</ele>
   </trkpt>
   <trkpt lat="45.99842" lon="11.350050000000001">
    <ele>772.51</ele>
   </trkpt>
   <trkpt lat="45.998490000000004" lon="11.35016">
    <ele>775.5000000000001</ele>
   </trkpt>
   <trkpt lat="45.998560000000005" lon="11.350320000000002">
    <ele>778.4000000000001</ele>
   </trkpt>
   <trkpt lat="45.99888000000001" lon="11.35073">
    <ele>788.12</ele>
   </trkpt>
   <trkpt lat="45.998940000000005" lon="11.350760000000001">
    <ele>792.12</ele>
   </trkpt>
   <trkpt lat="45.998990000000006" lon="11.35074">
    <ele>794.66</ele>
   </trkpt>
   <trkpt lat="45.999010000000006" lon="11.350620000000001">
    <ele>795.84</ele>
   </trkpt>
   <trkpt lat="45.99889" lon="11.35008">
    <ele>803.6500000000001</ele>
   </trkpt>
   <trkpt lat="45.99893" lon="11.349910000000001">
    <ele>807.94</ele>
   </trkpt>
   <trkpt lat="45.999" lon="11.349920000000001">
    <ele>808.94</ele>
   </trkpt>
   <trkpt lat="45.999030000000005" lon="11.350090000000002">
    <ele>810.82</ele>
   </trkpt>
   <trkpt lat="45.99909" lon="11.35022">
    <ele>815.32</ele>
   </trkpt>
   <trkpt lat="45.99927" lon="11.3504">
    <ele>820.01</ele>
   </trkpt>
   <trkpt lat="45.9994" lon="11.350670000000001">
    <ele>823.32</ele>
   </trkpt>
   <trkpt lat="45.999500000000005" lon="11.35096">
    <ele>825.5600000000001</ele>
   </trkpt>
   <trkpt lat="45.999570000000006" lon="11.351270000000001">
    <ele>830.94</ele>
   </trkpt>
   <trkpt lat="45.999570000000006" lon="11.35157">
    <ele>834.34</ele>
   </trkpt>
   <trkpt lat="45.999570000000006" lon="11.35158">
    <ele>834.34</ele>
   </trkpt>
   <trkpt lat="45.999430000000004" lon="11.351980000000001">
    <ele>840.0000000000001</ele>
   </trkpt>
   <trkpt lat="45.99936" lon="11.352110000000001">
    <ele>844.8000000000001</ele>
   </trkpt>
   <trkpt lat="45.999190000000006" lon="11.35218">
    <ele>846.86</ele>
   </trkpt>
   <trkpt lat="45.99898" lon="11.352170000000001">
    <ele>853.08</ele>
   </trkpt>
   <trkpt lat="45.9986" lon="11.35228">
    <ele>861.0000000000001</ele>
   </trkpt>
   <trkpt lat="45.998470000000005" lon="11.352160000000001">
    <ele>861.92</ele>
   </trkpt>
   <trkpt lat="45.99837" lon="11.352030000000001">
    <ele>863.13</ele>
   </trkpt>
   <trkpt lat="45.9983" lon="11.35196">
    <ele>863.69</ele>
   </trkpt>
   <trkpt lat="45.99819" lon="11.35196">
    <ele>864.38</ele>
   </trkpt>
   <trkpt lat="45.99801" lon="11.352">
    <ele>866.5400000000001</ele>
   </trkpt>
   <trkpt lat="45.997710000000005" lon="11.352110000000001">
    <ele>866.9300000000001</ele>
   </trkpt>
   <trkpt lat="45.99761" lon="11.35222">
    <ele>866.7</ele>
   </trkpt>
   <trkpt lat="45.99756000000001" lon="11.352430000000002">
    <ele>872.8500000000001</ele>
   </trkpt>
   <trkpt lat="45.997600000000006" lon="11.35279">
    <ele>876.57</ele>
   </trkpt>
   <trkpt lat="45.997730000000004" lon="11.35322">
    <ele>885.72</ele>
   </trkpt>
   <trkpt lat="45.998020000000004" lon="11.354030000000002">
    <ele>900.17</ele>
   </trkpt>
   <trkpt lat="45.998110000000004" lon="11.354450000000002">
    <ele>907.6700000000001</ele>
   </trkpt>
   <trkpt lat="45.99813" lon="11.354690000000002">
    <ele>913.27</ele>
   </trkpt>
   <trkpt lat="45.9981" lon="11.35542">
    <ele>924.45</ele>
   </trkpt>
   <trkpt lat="45.99806" lon="11.355910000000002">
    <ele>928.4000000000001</ele>
   </trkpt>
   <trkpt lat="45.9979" lon="11.35702">
    <ele>932.9900000000001</ele>
   </trkpt>
   <trkpt lat="45.99785000000001" lon="11.35758">
    <ele>937.6500000000001</ele>
   </trkpt>
   <trkpt lat="45.99786" lon="11.357830000000002">
    <ele>938.9600000000002</ele>
   </trkpt>
   <trkpt lat="45.99794000000001" lon="11.35832">
    <ele>942.4800000000001</ele>
   </trkpt>
   <trkpt lat="45.997980000000005" lon="11.3587">
    <ele>944.59</ele>
   </trkpt>
   <trkpt lat="45.99797" lon="11.358910000000002">
    <ele>946.12</ele>
   </trkpt>
   <trkpt lat="45.99792" lon="11.359150000000001">
    <ele>947.7800000000001</ele>
   </trkpt>
   <trkpt lat="45.997910000000005" lon="11.35936">
    <ele>948.73</ele>
   </trkpt>
   <trkpt lat="45.99797" lon="11.359990000000002">
    <ele>951.73</ele>
   </trkpt>
   <trkpt lat="45.997870000000006" lon="11.36001">
    <ele>951.7</ele>
   </trkpt>
   <trkpt lat="45.99777" lon="11.35997">
    <ele>951.9900000000001</ele>
   </trkpt>
   <trkpt lat="45.99763" lon="11.359750000000002">
    <ele>952.9900000000001</ele>
   </trkpt>
   <trkpt lat="45.997460000000004" lon="11.359390000000001">
    <ele>955.9900000000001</ele>
   </trkpt>
   <trkpt lat="45.99734" lon="11.359290000000001">
    <ele>958.6000000000001</ele>
   </trkpt>
   <trkpt lat="45.996990000000004" lon="11.359150000000001">
    <ele>961.3600000000001</ele>
   </trkpt>
   <trkpt lat="45.99678" lon="11.35894">
    <ele>964.2100000000002</ele>
   </trkpt>
   <trkpt lat="45.99671000000001" lon="11.358910000000002">
    <ele>964.61</ele>
   </trkpt>
   <trkpt lat="45.99658" lon="11.35889">
    <ele>966.0400000000001</ele>
   </trkpt>
   <trkpt lat="45.99644000000001" lon="11.358920000000001">
    <ele>966.73</ele>
   </trkpt>
   <trkpt lat="45.996370000000006" lon="11.359000000000002">
    <ele>967.0300000000001</ele>
   </trkpt>
   <trkpt lat="45.996370000000006" lon="11.35917">
    <ele>968.34</ele>
   </trkpt>
   <trkpt lat="45.996320000000004" lon="11.359290000000001">
    <ele>968.9900000000001</ele>
   </trkpt>
   <trkpt lat="45.99622" lon="11.35936">
    <ele>969.76</ele>
   </trkpt>
   <trkpt lat="45.99611" lon="11.359390000000001">
    <ele>971.01</ele>
   </trkpt>
   <trkpt lat="45.99606000000001" lon="11.359520000000002">
    <ele>971.7600000000001</ele>
   </trkpt>
   <trkpt lat="45.996050000000004" lon="11.359660000000002">
    <ele>972.0900000000001</ele>
   </trkpt>
   <trkpt lat="45.996170000000006" lon="11.359990000000002">
    <ele>974.1400000000001</ele>
   </trkpt>
   <trkpt lat="45.996230000000004" lon="11.360370000000001">
    <ele>975.5600000000001</ele>
   </trkpt>
   <trkpt lat="45.99622" lon="11.360690000000002">
    <ele>976.3000000000001</ele>
   </trkpt>
   <trkpt lat="45.99616" lon="11.361040000000001">
    <ele>977.16</ele>
   </trkpt>
   <trkpt lat="45.99595" lon="11.36148">
    <ele>979.49</ele>
   </trkpt>
   <trkpt lat="45.99593" lon="11.36161">
    <ele>979.49</ele>
   </trkpt>
   <trkpt lat="45.995960000000004" lon="11.361820000000002">
    <ele>980.0300000000001</ele>
   </trkpt>
   <trkpt lat="45.995920000000005" lon="11.362200000000001">
    <ele>980.46</ele>
   </trkpt>
   <trkpt lat="45.99588000000001" lon="11.36231">
    <ele>980.6</ele>
   </trkpt>
   <trkpt lat="45.995810000000006" lon="11.36231">
    <ele>980.6</ele>
   </trkpt>
   <trkpt lat="45.995740000000005" lon="11.36195">
    <ele>980.9100000000001</ele>
   </trkpt>
   <trkpt lat="45.99562" lon="11.361680000000002">
    <ele>981.0400000000001</ele>
   </trkpt>
   <trkpt lat="45.99550000000001" lon="11.361310000000001">
    <ele>981.37</ele>
   </trkpt>
   <trkpt lat="45.99521000000001" lon="11.360600000000002">
    <ele>980.44</ele>
   </trkpt>
   <trkpt lat="45.995140000000006" lon="11.36049">
    <ele>978.9000000000001</ele>
   </trkpt>
   <trkpt lat="45.994960000000006" lon="11.3603">
    <ele>977.8700000000001</ele>
   </trkpt>
   <trkpt lat="45.99497" lon="11.36031">
    <ele>977.8700000000001</ele>
   </trkpt>
   <trkpt lat="45.994800000000005" lon="11.360190000000001">
    <ele>977.2600000000001</ele>
   </trkpt>
   <trkpt lat="45.994690000000006" lon="11.360040000000001">
    <ele>977.5100000000001</ele>
   </trkpt>
   <trkpt lat="45.994620000000005" lon="11.359910000000001">
    <ele>977.86</ele>
   </trkpt>
   <trkpt lat="45.99457" lon="11.35955">
    <ele>979.0000000000001</ele>
   </trkpt>
   <trkpt lat="45.99434" lon="11.358690000000001">
    <ele>976.98</ele>
   </trkpt>
   <trkpt lat="45.99427000000001" lon="11.35852">
    <ele>976.5100000000001</ele>
   </trkpt>
   <trkpt lat="45.994170000000004" lon="11.35838">
    <ele>975.89</ele>
   </trkpt>
   <trkpt lat="45.994060000000005" lon="11.358300000000002">
    <ele>974.95</ele>
   </trkpt>
   <trkpt lat="45.993970000000004" lon="11.35828">
    <ele>974.95</ele>
   </trkpt>
   <trkpt lat="45.99374" lon="11.35829">
    <ele>973.74</ele>
   </trkpt>
   <trkpt lat="45.99371000000001" lon="11.358260000000001">
    <ele>973.74</ele>
   </trkpt>
   <trkpt lat="45.99371000000001" lon="11.35819">
    <ele>973.49</ele>
   </trkpt>
   <trkpt lat="45.99376" lon="11.35805">
    <ele>972.3900000000001</ele>
   </trkpt>
   <trkpt lat="45.99403" lon="11.35754">
    <ele>970.57</ele>
   </trkpt>
   <trkpt lat="45.994060000000005" lon="11.357370000000001">
    <ele>969.46</ele>
   </trkpt>
   <trkpt lat="45.994040000000005" lon="11.357220000000002">
    <ele>969.0400000000001</ele>
   </trkpt>
   <trkpt lat="45.99394" lon="11.35696">
    <ele>968.33</ele>
   </trkpt>
   <trkpt lat="45.99389" lon="11.356720000000001">
    <ele>967.83</ele>
   </trkpt>
   <trkpt lat="45.993840000000006" lon="11.356660000000002">
    <ele>967.83</ele>
   </trkpt>
   <trkpt lat="45.99378" lon="11.356630000000001">
    <ele>967.4800000000001</ele>
   </trkpt>
   <trkpt lat="45.993700000000004" lon="11.356620000000001">
    <ele>967.4800000000001</ele>
   </trkpt>
   <trkpt lat="45.99356" lon="11.35664">
    <ele>966.9100000000001</ele>
   </trkpt>
   <trkpt lat="45.993480000000005" lon="11.356610000000002">
    <ele>966.5500000000001</ele>
   </trkpt>
   <trkpt lat="45.993300000000005" lon="11.356390000000001">
    <ele>965.3900000000001</ele>
   </trkpt>
   <trkpt lat="45.993190000000006" lon="11.356380000000001">
    <ele>965.3900000000001</ele>
   </trkpt>
   <trkpt lat="45.993030000000005" lon="11.356430000000001">
    <ele>964.0200000000001</ele>
   </trkpt>
   <trkpt lat="45.99291" lon="11.356530000000001">
    <ele>963.01</ele>
   </trkpt>
   <trkpt lat="45.99266" lon="11.35683">
    <ele>962.0400000000001</ele>
   </trkpt>
   <trkpt lat="45.9924" lon="11.35701">
    <ele>960.69</ele>
   </trkpt>
   <trkpt lat="45.99208" lon="11.357050000000001">
    <ele>958.84</ele>
   </trkpt>
   <trkpt lat="45.991800000000005" lon="11.356940000000002">
    <ele>958.4300000000001</ele>
   </trkpt>
   <trkpt lat="45.99168" lon="11.35684">
    <ele>958.09</ele>
   </trkpt>
   <trkpt lat="45.99166" lon="11.356770000000001">
    <ele>957.97</ele>
   </trkpt>
   <trkpt lat="45.991670000000006" lon="11.356700000000002">
    <ele>957.8100000000001</ele>
   </trkpt>
   <trkpt lat="45.9917" lon="11.35665">
    <ele>957.58</ele>
   </trkpt>
   <trkpt lat="45.99179" lon="11.356570000000001">
    <ele>956.4500000000002</ele>
   </trkpt>
   <trkpt lat="45.991820000000004" lon="11.35651">
    <ele>956.4500000000002</ele>
   </trkpt>
   <trkpt lat="45.99184" lon="11.3559">
    <ele>952.0200000000001</ele>
   </trkpt>
   <trkpt lat="45.9919" lon="11.35551">
    <ele>948.8700000000001</ele>
   </trkpt>
   <trkpt lat="45.992050000000006" lon="11.35513">
    <ele>944.69</ele>
   </trkpt>
   <trkpt lat="45.99224" lon="11.354260000000002">
    <ele>936.2</ele>
   </trkpt>
   <trkpt lat="45.99235" lon="11.35406">
    <ele>930.2800000000001</ele>
   </trkpt>
   <trkpt lat="45.992560000000005" lon="11.35374">
    <ele>926.83</ele>
   </trkpt>
   <trkpt lat="45.99268000000001" lon="11.3536">
    <ele>925.0</ele>
   </trkpt>
   <trkpt lat="45.99279000000001" lon="11.353520000000001">
    <ele>923.8900000000001</ele>
   </trkpt>
   <trkpt lat="45.993010000000005" lon="11.353430000000001">
    <ele>920.9100000000001</ele>
   </trkpt>
   <trkpt lat="45.993170000000006" lon="11.35332">
    <ele>919.37</ele>
   </trkpt>
   <trkpt lat="45.9932" lon="11.35327">
    <ele>918.7900000000001</ele>
   </trkpt>
   <trkpt lat="45.993190000000006" lon="11.35318">
    <ele>918.1700000000001</ele>
   </trkpt>
   <trkpt lat="45.99293" lon="11.35317">
    <ele>912.5300000000001</ele>
   </trkpt>
   <trkpt lat="45.99251" lon="11.352970000000001">
    <ele>905.87</ele>
   </trkpt>
   <trkpt lat="45.992430000000006" lon="11.35288">
    <ele>905.87</ele>
   </trkpt>
   <trkpt lat="45.992360000000005" lon="11.352720000000001">
    <ele>903.21</ele>
   </trkpt>
   <trkpt lat="45.99233" lon="11.3526">
    <ele>901.83</ele>
   </trkpt>
   <trkpt lat="45.99222" lon="11.35242">
    <ele>897.58</ele>
   </trkpt>
   <trkpt lat="45.99217" lon="11.35237">
    <ele>897.58</ele>
   </trkpt>
   <trkpt lat="45.99206" lon="11.35232">
    <ele>896.2200000000001</ele>
   </trkpt>
   <trkpt lat="45.991890000000005" lon="11.35218">
    <ele>894.36</ele>
   </trkpt>
   <trkpt lat="45.991780000000006" lon="11.35214">
    <ele>893.2500000000001</ele>
   </trkpt>
   <trkpt lat="45.99166" lon="11.352020000000001">
    <ele>891.1500000000001</ele>
   </trkpt>
   <trkpt lat="45.99166" lon="11.35194">
    <ele>889.97</ele>
   </trkpt>
   <trkpt lat="45.99208" lon="11.35205">
    <ele>884.6</ele>
   </trkpt>
   <trkpt lat="45.99231" lon="11.35204">
    <ele>879.6100000000001</ele>
   </trkpt>
   <trkpt lat="45.992430000000006" lon="11.35208">
    <ele>878.9800000000001</ele>
   </trkpt>
   <trkpt lat="45.992520000000006" lon="11.352120000000001">
    <ele>878.32</ele>
   </trkpt>
   <trkpt lat="45.992650000000005" lon="11.352310000000001">
    <ele>872.1800000000001</ele>
   </trkpt>
   <trkpt lat="45.992720000000006" lon="11.352350000000001">
    <ele>872.1800000000001</ele>
   </trkpt>
   <trkpt lat="45.99289" lon="11.35233">
    <ele>870.87</ele>
   </trkpt>
   <trkpt lat="45.993" lon="11.35227">
    <ele>868.3000000000001</ele>
   </trkpt>
   <trkpt lat="45.993170000000006" lon="11.352070000000001">
    <ele>866.2800000000001</ele>
   </trkpt>
   <trkpt lat="45.9934" lon="11.35199">
    <ele>863.3400000000001</ele>
   </trkpt>
   <trkpt lat="45.9934" lon="11.351920000000002">
    <ele>862.72</ele>
   </trkpt>
   <trkpt lat="45.993370000000006" lon="11.351920000000002">
    <ele>862.72</ele>
   </trkpt>
   <trkpt lat="45.99333" lon="11.35195">
    <ele>860.11</ele>
   </trkpt>
   <trkpt lat="45.993100000000005" lon="11.351970000000001">
    <ele>858.92</ele>
   </trkpt>
   <trkpt lat="45.99298" lon="11.352020000000001">
    <ele>857.25</ele>
   </trkpt>
   <trkpt lat="45.99291" lon="11.352030000000001">
    <ele>854.5600000000001</ele>
   </trkpt>
   <trkpt lat="45.99279000000001" lon="11.351970000000001">
    <ele>854.5600000000001</ele>
   </trkpt>
   <trkpt lat="45.99275" lon="11.351920000000002">
    <ele>854.5600000000001</ele>
   </trkpt>
   <trkpt lat="45.99253" lon="11.351370000000001">
    <ele>847.9700000000001</ele>
   </trkpt>
   <trkpt lat="45.992470000000004" lon="11.351310000000002">
    <ele>847.9700000000001</ele>
   </trkpt>
   <trkpt lat="45.99241000000001" lon="11.35129">
    <ele>847.49</ele>
   </trkpt>
   <trkpt lat="45.99219" lon="11.351280000000001">
    <ele>845.4</ele>
   </trkpt>
   <trkpt lat="45.992020000000004" lon="11.351080000000001">
    <ele>842.5400000000001</ele>
   </trkpt>
   <trkpt lat="45.99201" lon="11.351">
    <ele>841.46</ele>
   </trkpt>
   <trkpt lat="45.992020000000004" lon="11.35096">
    <ele>841.46</ele>
   </trkpt>
   <trkpt lat="45.992050000000006" lon="11.35096">
    <ele>841.46</ele>
   </trkpt>
   <trkpt lat="45.99217" lon="11.3511">
    <ele>839.19</ele>
   </trkpt>
   <trkpt lat="45.992230000000006" lon="11.351130000000001">
    <ele>838.2600000000001</ele>
   </trkpt>
   <trkpt lat="45.992290000000004" lon="11.351140000000001">
    <ele>837.8700000000001</ele>
   </trkpt>
   <trkpt lat="45.992450000000005" lon="11.351080000000001">
    <ele>836.5400000000001</ele>
   </trkpt>
   <trkpt lat="45.99253" lon="11.3511">
    <ele>835.8000000000001</ele>
   </trkpt>
   <trkpt lat="45.99279000000001" lon="11.35143">
    <ele>831.85</ele>
   </trkpt>
   <trkpt lat="45.99287" lon="11.35148">
    <ele>831.85</ele>
   </trkpt>
   <trkpt lat="45.992900000000006" lon="11.35148">
    <ele>831.4100000000001</ele>
   </trkpt>
   <trkpt lat="45.99293" lon="11.351460000000001">
    <ele>830.94</ele>
   </trkpt>
   <trkpt lat="45.99293" lon="11.35143">
    <ele>830.94</ele>
   </trkpt>
   <trkpt lat="45.99279000000001" lon="11.351270000000001">
    <ele>828.73</ele>
   </trkpt>
   <trkpt lat="45.992560000000005" lon="11.350900000000001">
    <ele>824.35</ele>
   </trkpt>
   <trkpt lat="45.99253" lon="11.35087">
    <ele>824.35</ele>
   </trkpt>
   <trkpt lat="45.992340000000006" lon="11.350850000000001">
    <ele>823.06</ele>
   </trkpt>
   <trkpt lat="45.992290000000004" lon="11.35083">
    <ele>823.06</ele>
   </trkpt>
   <trkpt lat="45.99219" lon="11.350620000000001">
    <ele>820.6000000000001</ele>
   </trkpt>
   <trkpt lat="45.99217" lon="11.350520000000001">
    <ele>819.3800000000001</ele>
   </trkpt>
   <trkpt lat="45.99219" lon="11.35049">
    <ele>819.3800000000001</ele>
   </trkpt>
   <trkpt lat="45.99222" lon="11.35049">
    <ele>819.3800000000001</ele>
   </trkpt>
   <trkpt lat="45.99231" lon="11.35069">
    <ele>816.0500000000001</ele>
   </trkpt>
   <trkpt lat="45.99237" lon="11.350710000000001">
    <ele>816.0500000000001</ele>
   </trkpt>
   <trkpt lat="45.99251" lon="11.350710000000001">
    <ele>813.71</ele>
   </trkpt>
   <trkpt lat="45.992560000000005" lon="11.35069">
    <ele>812.5100000000001</ele>
   </trkpt>
   <trkpt lat="45.99262" lon="11.35063">
    <ele>811.24</ele>
   </trkpt>
   <trkpt lat="45.99269" lon="11.35064">
    <ele>810.58</ele>
   </trkpt>
   <trkpt lat="45.99287" lon="11.35078">
    <ele>805.61</ele>
   </trkpt>
   <trkpt lat="45.99313" lon="11.350700000000002">
    <ele>803.07</ele>
   </trkpt>
   <trkpt lat="45.99322" lon="11.35058">
    <ele>801.72</ele>
   </trkpt>
   <trkpt lat="45.99322" lon="11.350530000000001">
    <ele>801.72</ele>
   </trkpt>
   <trkpt lat="45.99318" lon="11.350510000000002">
    <ele>799.5300000000001</ele>
   </trkpt>
   <trkpt lat="45.99316" lon="11.35055">
    <ele>799.5300000000001</ele>
   </trkpt>
   <trkpt lat="45.99304" lon="11.350600000000002">
    <ele>799.5300000000001</ele>
   </trkpt>
   <trkpt lat="45.992940000000004" lon="11.350600000000002">
    <ele>795.3000000000001</ele>
   </trkpt>
   <trkpt lat="45.99288000000001" lon="11.3505">
    <ele>795.3000000000001</ele>
   </trkpt>
   <trkpt lat="45.992760000000004" lon="11.35021">
    <ele>790.8600000000001</ele>
   </trkpt>
   <trkpt lat="45.99273" lon="11.350200000000001">
    <ele>790.8600000000001</ele>
   </trkpt>
   <trkpt lat="45.99262" lon="11.35026">
    <ele>787.97</ele>
   </trkpt>
   <trkpt lat="45.99251" lon="11.35025">
    <ele>787.27</ele>
   </trkpt>
   <trkpt lat="45.992450000000005" lon="11.35016">
    <ele>785.97</ele>
   </trkpt>
   <trkpt lat="45.992340000000006" lon="11.34983">
    <ele>781.5000000000001</ele>
   </trkpt>
   <trkpt lat="45.99228" lon="11.34975">
    <ele>781.5000000000001</ele>
   </trkpt>
   <trkpt lat="45.99224" lon="11.349730000000001">
    <ele>780.2900000000001</ele>
   </trkpt>
   <trkpt lat="45.992200000000004" lon="11.34975">
    <ele>779.7400000000001</ele>
   </trkpt>
   <trkpt lat="45.992140000000006" lon="11.34984">
    <ele>779.24</ele>
   </trkpt>
   <trkpt lat="45.991980000000005" lon="11.349900000000002">
    <ele>777.2500000000001</ele>
   </trkpt>
   <trkpt lat="45.99192" lon="11.34989">
    <ele>776.84</ele>
   </trkpt>
   <trkpt lat="45.99179" lon="11.349920000000001">
    <ele>775.0400000000001</ele>
   </trkpt>
   <trkpt lat="45.99157" lon="11.349910000000001">
    <ele>773.73</ele>
   </trkpt>
   <trkpt lat="45.99152" lon="11.34989">
    <ele>772.8100000000001</ele>
   </trkpt>
   <trkpt lat="45.99152" lon="11.349730000000001">
    <ele>771.73</ele>
   </trkpt>
   <trkpt lat="45.991620000000005" lon="11.34951">
    <ele>769.09</ele>
   </trkpt>
   <trkpt lat="45.99174000000001" lon="11.349340000000002">
    <ele>766.4900000000001</ele>
   </trkpt>
   <trkpt lat="45.99175" lon="11.349290000000002">
    <ele>766.4900000000001</ele>
   </trkpt>
   <trkpt lat="45.99163" lon="11.34905">
    <ele>764.57</ele>
   </trkpt>
   <trkpt lat="45.99165000000001" lon="11.34885">
    <ele>764.09</ele>
   </trkpt>
   <trkpt lat="45.991760000000006" lon="11.34866">
    <ele>762.9100000000001</ele>
   </trkpt>
   <trkpt lat="45.99186" lon="11.348550000000001">
    <ele>761.8600000000001</ele>
   </trkpt>
   <trkpt lat="45.99194000000001" lon="11.348500000000001">
    <ele>760.61</ele>
   </trkpt>
   <trkpt lat="45.992160000000005" lon="11.348540000000002">
    <ele>756.74</ele>
   </trkpt>
   <trkpt lat="45.9924" lon="11.348540000000002">
    <ele>753.4200000000001</ele>
   </trkpt>
   <trkpt lat="45.992630000000005" lon="11.348450000000001">
    <ele>750.48</ele>
   </trkpt>
   <trkpt lat="45.99269" lon="11.34848">
    <ele>750.48</ele>
   </trkpt>
   <trkpt lat="45.99271" lon="11.34852">
    <ele>747.2700000000001</ele>
   </trkpt>
   <trkpt lat="45.99269" lon="11.348550000000001">
    <ele>747.2700000000001</ele>
   </trkpt>
   <trkpt lat="45.992360000000005" lon="11.348790000000001">
    <ele>743.04</ele>
   </trkpt>
   <trkpt lat="45.99235" lon="11.34885">
    <ele>741.6400000000001</ele>
   </trkpt>
   <trkpt lat="45.99237" lon="11.34891">
    <ele>741.6400000000001</ele>
   </trkpt>
   <trkpt lat="45.99244" lon="11.34895">
    <ele>739.45</ele>
   </trkpt>
   <trkpt lat="45.99250000000001" lon="11.34895">
    <ele>739.45</ele>
   </trkpt>
   <trkpt lat="45.99279000000001" lon="11.34885">
    <ele>734.08</ele>
   </trkpt>
   <trkpt lat="45.993410000000004" lon="11.348220000000001">
    <ele>725.36</ele>
   </trkpt>
   <trkpt lat="45.993550000000006" lon="11.348130000000001">
    <ele>722.92</ele>
   </trkpt>
   <trkpt lat="45.993770000000005" lon="11.347790000000002">
    <ele>719.01</ele>
   </trkpt>
   <trkpt lat="45.99383" lon="11.347610000000001">
    <ele>719.01</ele>
   </trkpt>
   <trkpt lat="45.993840000000006" lon="11.347600000000002">
    <ele>719.01</ele>
   </trkpt>
   <trkpt lat="45.99387" lon="11.347470000000001">
    <ele>717.9000000000001</ele>
   </trkpt>
   <trkpt lat="45.993900000000004" lon="11.34693">
    <ele>715.6300000000001</ele>
   </trkpt>
   <trkpt lat="45.99392" lon="11.34683">
    <ele>714.71</ele>
   </trkpt>
   <trkpt lat="45.993950000000005" lon="11.346760000000002">
    <ele>714.71</ele>
   </trkpt>
   <trkpt lat="45.99385" lon="11.34661">
    <ele>717.33</ele>
   </trkpt>
   <trkpt lat="45.993880000000004" lon="11.34614">
    <ele>728.4200000000001</ele>
   </trkpt>
   <trkpt lat="45.993770000000005" lon="11.345830000000001">
    <ele>730.4100000000001</ele>
   </trkpt>
   <trkpt lat="45.99367" lon="11.34567">
    <ele>733.32</ele>
   </trkpt>
   <trkpt lat="45.993520000000004" lon="11.34551">
    <ele>737.65</ele>
   </trkpt>
   <trkpt lat="45.993370000000006" lon="11.345300000000002">
    <ele>741.26</ele>
   </trkpt>
   <trkpt lat="45.992940000000004" lon="11.344800000000001">
    <ele>759.4900000000001</ele>
   </trkpt>
   <trkpt lat="45.99279000000001" lon="11.344430000000001">
    <ele>765.39</ele>
   </trkpt>
   <trkpt lat="45.992720000000006" lon="11.344470000000001">
    <ele>766.3700000000001</ele>
   </trkpt>
   <trkpt lat="45.99282" lon="11.34492">
    <ele>771.9800000000001</ele>
   </trkpt>
   <trkpt lat="45.992810000000006" lon="11.34501">
    <ele>778.0300000000001</ele>
   </trkpt>
   <trkpt lat="45.992760000000004" lon="11.34501">
    <ele>778.0300000000001</ele>
   </trkpt>
   <trkpt lat="45.99268000000001" lon="11.344800000000001">
    <ele>781.93</ele>
   </trkpt>
   <trkpt lat="45.992580000000004" lon="11.34462">
    <ele>784.95</ele>
   </trkpt>
   <trkpt lat="45.992490000000004" lon="11.344320000000002">
    <ele>790.83</ele>
   </trkpt>
   <trkpt lat="45.99224" lon="11.343910000000001">
    <ele>797.7900000000001</ele>
   </trkpt>
   <trkpt lat="45.9921" lon="11.343820000000001">
    <ele>801.0500000000001</ele>
   </trkpt>
   <trkpt lat="45.99201" lon="11.34373">
    <ele>802.8700000000001</ele>
   </trkpt>
   <trkpt lat="45.99203000000001" lon="11.343580000000001">
    <ele>804.39</ele>
   </trkpt>
   <trkpt lat="45.99219" lon="11.3435">
    <ele>808.1400000000001</ele>
   </trkpt>
   <trkpt lat="45.99244" lon="11.343520000000002">
    <ele>811.6700000000001</ele>
   </trkpt>
   <trkpt lat="45.99262" lon="11.34342">
    <ele>815.8400000000001</ele>
   </trkpt>
   <trkpt lat="45.992740000000005" lon="11.34331">
    <ele>819.5300000000001</ele>
   </trkpt>
   <trkpt lat="45.992850000000004" lon="11.34313">
    <ele>822.5500000000001</ele>
   </trkpt>
   <trkpt lat="45.992960000000004" lon="11.34312">
    <ele>826.08</ele>
   </trkpt>
   <trkpt lat="45.993100000000005" lon="11.34317">
    <ele>830.8000000000001</ele>
   </trkpt>
   <trkpt lat="45.99304" lon="11.343020000000001">
    <ele>836.6800000000001</ele>
   </trkpt>
   <trkpt lat="45.99304" lon="11.34298">
    <ele>836.6800000000001</ele>
   </trkpt>
   <trkpt lat="45.993080000000006" lon="11.34293">
    <ele>840.4800000000001</ele>
   </trkpt>
   <trkpt lat="45.99302" lon="11.342780000000001">
    <ele>842.07</ele>
   </trkpt>
   <trkpt lat="45.99284" lon="11.34251">
    <ele>847.1200000000001</ele>
   </trkpt>
   <trkpt lat="45.992610000000006" lon="11.34247">
    <ele>849.47</ele>
   </trkpt>
   <trkpt lat="45.99244" lon="11.342360000000001">
    <ele>855.11</ele>
   </trkpt>
   <trkpt lat="45.992270000000005" lon="11.34229">
    <ele>857.6800000000001</ele>
   </trkpt>
   <trkpt lat="45.992180000000005" lon="11.34228">
    <ele>859.5400000000001</ele>
   </trkpt>
   <trkpt lat="45.99215" lon="11.34223">
    <ele>859.5400000000001</ele>
   </trkpt>
   <trkpt lat="45.99215" lon="11.342170000000001">
    <ele>860.4200000000001</ele>
   </trkpt>
   <trkpt lat="45.99217" lon="11.342130000000001">
    <ele>861.22</ele>
   </trkpt>
   <trkpt lat="45.99244" lon="11.341930000000001">
    <ele>867.01</ele>
   </trkpt>
   <trkpt lat="45.99257" lon="11.34187">
    <ele>867.6600000000001</ele>
   </trkpt>
   <trkpt lat="45.992760000000004" lon="11.34191">
    <ele>872.41</ele>
   </trkpt>
   <trkpt lat="45.992940000000004" lon="11.341990000000001">
    <ele>873.8800000000001</ele>
   </trkpt>
   <trkpt lat="45.99326000000001" lon="11.342170000000001">
    <ele>878.4200000000001</ele>
   </trkpt>
   <trkpt lat="45.993410000000004" lon="11.3422">
    <ele>879.11</ele>
   </trkpt>
   <trkpt lat="45.99347" lon="11.34218">
    <ele>879.63</ele>
   </trkpt>
   <trkpt lat="45.99353000000001" lon="11.342130000000001">
    <ele>880.0400000000001</ele>
   </trkpt>
   <trkpt lat="45.9936" lon="11.342030000000001">
    <ele>880.3900000000001</ele>
   </trkpt>
   <trkpt lat="45.99378" lon="11.34157">
    <ele>881.02</ele>
   </trkpt>
   <trkpt lat="45.9936" lon="11.340950000000001">
    <ele>882.7300000000001</ele>
   </trkpt>
   <trkpt lat="45.99356" lon="11.34022">
    <ele>887.0500000000001</ele>
   </trkpt>
   <trkpt lat="45.99342" lon="11.33974">
    <ele>891.21</ele>
   </trkpt>
   <trkpt lat="45.99338" lon="11.339530000000002">
    <ele>892.38</ele>
   </trkpt>
   <trkpt lat="45.99335000000001" lon="11.339220000000001">
    <ele>893.6100000000001</ele>
   </trkpt>
   <trkpt lat="45.993210000000005" lon="11.338730000000002">
    <ele>893.72</ele>
   </trkpt>
   <trkpt lat="45.993210000000005" lon="11.33871">
    <ele>893.7</ele>
   </trkpt>
   <trkpt lat="45.993140000000004" lon="11.338510000000001">
    <ele>893.21</ele>
   </trkpt>
   <trkpt lat="45.99302" lon="11.338260000000002">
    <ele>893.09</ele>
   </trkpt>
   <trkpt lat="45.992850000000004" lon="11.33778">
    <ele>892.1500000000001</ele>
   </trkpt>
   <trkpt lat="45.9928" lon="11.33754">
    <ele>891.5</ele>
   </trkpt>
   <trkpt lat="45.99273" lon="11.337380000000001">
    <ele>890.73</ele>
   </trkpt>
   <trkpt lat="45.992830000000005" lon="11.33679">
    <ele>881.83</ele>
   </trkpt>
   <trkpt lat="45.99291" lon="11.33652">
    <ele>878.72</ele>
   </trkpt>
   <trkpt lat="45.99297000000001" lon="11.336390000000002">
    <ele>875.2500000000001</ele>
   </trkpt>
   <trkpt lat="45.99298" lon="11.336250000000001">
    <ele>873.0000000000001</ele>
   </trkpt>
   <trkpt lat="45.992900000000006" lon="11.33622">
    <ele>868.6800000000001</ele>
   </trkpt>
   <trkpt lat="45.99266" lon="11.33627">
    <ele>863.75</ele>
   </trkpt>
   <trkpt lat="45.99248" lon="11.336250000000001">
    <ele>859.04</ele>
   </trkpt>
   <trkpt lat="45.9924" lon="11.33618">
    <ele>859.04</ele>
   </trkpt>
   <trkpt lat="45.99246" lon="11.335980000000001">
    <ele>855.95</ele>
   </trkpt>
   <trkpt lat="45.992540000000005" lon="11.3359">
    <ele>853.6100000000001</ele>
   </trkpt>
   <trkpt lat="45.992720000000006" lon="11.335830000000001">
    <ele>848.7600000000001</ele>
   </trkpt>
   <trkpt lat="45.992830000000005" lon="11.335600000000001">
    <ele>842.59</ele>
   </trkpt>
   <trkpt lat="45.992960000000004" lon="11.33553">
    <ele>839.07</ele>
   </trkpt>
   <trkpt lat="45.993100000000005" lon="11.335360000000001">
    <ele>832.89</ele>
   </trkpt>
   <trkpt lat="45.99324000000001" lon="11.33514">
    <ele>828.6500000000001</ele>
   </trkpt>
   <trkpt lat="45.99329" lon="11.334800000000001">
    <ele>820.7800000000001</ele>
   </trkpt>
   <trkpt lat="45.993230000000004" lon="11.33464">
    <ele>818.25</ele>
   </trkpt>
   <trkpt lat="45.993140000000004" lon="11.334470000000001">
    <ele>815.9900000000001</ele>
   </trkpt>
   <trkpt lat="45.993030000000005" lon="11.33436">
    <ele>811.94</ele>
   </trkpt>
   <trkpt lat="45.99287" lon="11.33427">
    <ele>809.8100000000001</ele>
   </trkpt>
   <trkpt lat="45.992760000000004" lon="11.334290000000001">
    <ele>809.32</ele>
   </trkpt>
   <trkpt lat="45.992540000000005" lon="11.334700000000002">
    <ele>804.4100000000001</ele>
   </trkpt>
   <trkpt lat="45.99242" lon="11.33472">
    <ele>803.61</ele>
   </trkpt>
   <trkpt lat="45.992340000000006" lon="11.334620000000001">
    <ele>799.3500000000001</ele>
   </trkpt>
   <trkpt lat="45.992200000000004" lon="11.33458">
    <ele>796.9000000000001</ele>
   </trkpt>
   <trkpt lat="45.99201" lon="11.33469">
    <ele>793.19</ele>
   </trkpt>
   <trkpt lat="45.991910000000004" lon="11.334610000000001">
    <ele>791.63</ele>
   </trkpt>
   <trkpt lat="45.99201" lon="11.33444">
    <ele>789.8600000000001</ele>
   </trkpt>
   <trkpt lat="45.99228" lon="11.334130000000002">
    <ele>782.82</ele>
   </trkpt>
   <trkpt lat="45.99242" lon="11.333580000000001">
    <ele>775.4300000000001</ele>
   </trkpt>
   <trkpt lat="45.99266" lon="11.333210000000001">
    <ele>772.22</ele>
   </trkpt>
   <trkpt lat="45.99295" lon="11.33304">
    <ele>767.84</ele>
   </trkpt>
   <trkpt lat="45.993080000000006" lon="11.33303">
    <ele>767.3100000000001</ele>
   </trkpt>
   <trkpt lat="45.993190000000006" lon="11.33294">
    <ele>765.34</ele>
   </trkpt>
   <trkpt lat="45.9932" lon="11.33286">
    <ele>764.32</ele>
   </trkpt>
   <trkpt lat="45.99311" lon="11.33272">
    <ele>763.23</ele>
   </trkpt>
   <trkpt lat="45.99295" lon="11.33267">
    <ele>760.9100000000001</ele>
   </trkpt>
   <trkpt lat="45.992560000000005" lon="11.332450000000001">
    <ele>754.41</ele>
   </trkpt>
   <trkpt lat="45.99242" lon="11.332540000000002">
    <ele>753.1800000000001</ele>
   </trkpt>
   <trkpt lat="45.99228" lon="11.33286">
    <ele>750.2800000000001</ele>
   </trkpt>
   <trkpt lat="45.992180000000005" lon="11.33299">
    <ele>748.33</ele>
   </trkpt>
   <trkpt lat="45.9921" lon="11.332960000000002">
    <ele>747.12</ele>
   </trkpt>
   <trkpt lat="45.99208" lon="11.332740000000001">
    <ele>744.99</ele>
   </trkpt>
   <trkpt lat="45.9921" lon="11.332460000000001">
    <ele>740.0600000000001</ele>
   </trkpt>
   <trkpt lat="45.99226" lon="11.33206">
    <ele>732.37</ele>
   </trkpt>
   <trkpt lat="45.99237" lon="11.331940000000001">
    <ele>732.37</ele>
   </trkpt>
   <trkpt lat="45.99237" lon="11.331800000000001">
    <ele>729.9000000000001</ele>
   </trkpt>
   <trkpt lat="45.99228" lon="11.331760000000001">
    <ele>729.11</ele>
   </trkpt>
   <trkpt lat="45.992180000000005" lon="11.331890000000001">
    <ele>726.98</ele>
   </trkpt>
   <trkpt lat="45.992090000000005" lon="11.331930000000002">
    <ele>725.09</ele>
   </trkpt>
   <trkpt lat="45.991890000000005" lon="11.33163">
    <ele>720.86</ele>
   </trkpt>
   <trkpt lat="45.99177" lon="11.331600000000002">
    <ele>719.7300000000001</ele>
   </trkpt>
   <trkpt lat="45.991580000000006" lon="11.33159">
    <ele>718.23</ele>
   </trkpt>
   <trkpt lat="45.991020000000006" lon="11.3315">
    <ele>711.34</ele>
   </trkpt>
   <trkpt lat="45.99087" lon="11.331370000000001">
    <ele>709.47</ele>
   </trkpt>
   <trkpt lat="45.990640000000006" lon="11.331090000000001">
    <ele>701.5600000000001</ele>
   </trkpt>
   <trkpt lat="45.990460000000006" lon="11.330810000000001">
    <ele>697.49</ele>
   </trkpt>
   <trkpt lat="45.99033000000001" lon="11.330570000000002">
    <ele>695.5400000000001</ele>
   </trkpt>
   <trkpt lat="45.990190000000005" lon="11.33026">
    <ele>689.27</ele>
   </trkpt>
   <trkpt lat="45.989990000000006" lon="11.330100000000002">
    <ele>683.7700000000001</ele>
   </trkpt>
   <trkpt lat="45.989920000000005" lon="11.3299">
    <ele>681.1</ele>
   </trkpt>
   <trkpt lat="45.989940000000004" lon="11.32967">
    <ele>677.19</ele>
   </trkpt>
   <trkpt lat="45.990050000000004" lon="11.329460000000001">
    <ele>675.58</ele>
   </trkpt>
   <trkpt lat="45.990190000000005" lon="11.329360000000001">
    <ele>671.44</ele>
   </trkpt>
   <trkpt lat="45.99033000000001" lon="11.329360000000001">
    <ele>671.44</ele>
   </trkpt>
   <trkpt lat="45.99058" lon="11.32947">
    <ele>665.6899999999999</ele>
   </trkpt>
   <trkpt lat="45.99062000000001" lon="11.32967">
    <ele>665.6899999999999</ele>
   </trkpt>
   <trkpt lat="45.990610000000004" lon="11.329970000000001">
    <ele>661.3</ele>
   </trkpt>
   <trkpt lat="45.990660000000005" lon="11.330050000000002">
    <ele>659.76</ele>
   </trkpt>
   <trkpt lat="45.990750000000006" lon="11.33009">
    <ele>655.7400000000001</ele>
   </trkpt>
   <trkpt lat="45.9909" lon="11.330020000000001">
    <ele>654.1</ele>
   </trkpt>
   <trkpt lat="45.99098" lon="11.329780000000001">
    <ele>650.7400000000001</ele>
   </trkpt>
   <trkpt lat="45.99100000000001" lon="11.32956">
    <ele>649.17</ele>
   </trkpt>
   <trkpt lat="45.991080000000004" lon="11.32929">
    <ele>644.21</ele>
   </trkpt>
   <trkpt lat="45.990990000000004" lon="11.32872">
    <ele>639.3100000000001</ele>
   </trkpt>
   <trkpt lat="45.99087" lon="11.32834">
    <ele>636.23</ele>
   </trkpt>
   <trkpt lat="45.990840000000006" lon="11.32806">
    <ele>634.0</ele>
   </trkpt>
   <trkpt lat="45.99085" lon="11.327710000000002">
    <ele>629.35</ele>
   </trkpt>
   <trkpt lat="45.99080000000001" lon="11.327280000000002">
    <ele>625.5200000000001</ele>
   </trkpt>
   <trkpt lat="45.99074" lon="11.327020000000001">
    <ele>622.87</ele>
   </trkpt>
   <trkpt lat="45.99078" lon="11.326880000000001">
    <ele>621.47</ele>
   </trkpt>
   <trkpt lat="45.9909" lon="11.326860000000002">
    <ele>619.2800000000001</ele>
   </trkpt>
   <trkpt lat="45.99134" lon="11.327110000000001">
    <ele>611.8</ele>
   </trkpt>
   <trkpt lat="45.99154" lon="11.327250000000001">
    <ele>608.5600000000001</ele>
   </trkpt>
   <trkpt lat="45.99165000000001" lon="11.327290000000001">
    <ele>607.3900000000001</ele>
   </trkpt>
   <trkpt lat="45.99172" lon="11.327210000000001">
    <ele>606.75</ele>
   </trkpt>
   <trkpt lat="45.991820000000004" lon="11.32671">
    <ele>601.58</ele>
   </trkpt>
   <trkpt lat="45.99188" lon="11.326310000000001">
    <ele>597.0000000000001</ele>
   </trkpt>
   <trkpt lat="45.99188" lon="11.32618">
    <ele>595.1200000000001</ele>
   </trkpt>
   <trkpt lat="45.991800000000005" lon="11.32614">
    <ele>595.1200000000001</ele>
   </trkpt>
   <trkpt lat="45.99172" lon="11.3262">
    <ele>592.52</ele>
   </trkpt>
   <trkpt lat="45.991620000000005" lon="11.326160000000002">
    <ele>592.52</ele>
   </trkpt>
   <trkpt lat="45.99156000000001" lon="11.326030000000001">
    <ele>591.16</ele>
   </trkpt>
   <trkpt lat="45.9915" lon="11.32521">
    <ele>581.89</ele>
   </trkpt>
   <trkpt lat="45.99154" lon="11.32506">
    <ele>580.74</ele>
   </trkpt>
   <trkpt lat="45.991600000000005" lon="11.32501">
    <ele>580.74</ele>
   </trkpt>
   <trkpt lat="45.991690000000006" lon="11.32506">
    <ele>578.16</ele>
   </trkpt>
   <trkpt lat="45.991780000000006" lon="11.325180000000001">
    <ele>578.16</ele>
   </trkpt>
   <trkpt lat="45.9919" lon="11.325230000000001">
    <ele>575.0500000000001</ele>
   </trkpt>
   <trkpt lat="45.99201" lon="11.325230000000001">
    <ele>573.01</ele>
   </trkpt>
   <trkpt lat="45.99248" lon="11.32417">
    <ele>542.84</ele>
   </trkpt>
   <trkpt lat="45.99264" lon="11.323590000000001">
    <ele>537.5699999999999</ele>
   </trkpt>
   <trkpt lat="45.99264" lon="11.323030000000001">
    <ele>532.21</ele>
   </trkpt>
   <trkpt lat="45.992810000000006" lon="11.323">
    <ele>528.48</ele>
   </trkpt>
   <trkpt lat="45.993170000000006" lon="11.323120000000001">
    <ele>524.39</ele>
   </trkpt>
   <trkpt lat="45.99327" lon="11.323200000000002">
    <ele>523.82</ele>
   </trkpt>
   <trkpt lat="45.99333" lon="11.32328">
    <ele>523.3500000000001</ele>
   </trkpt>
   <trkpt lat="45.99376" lon="11.323490000000001">
    <ele>516.7400000000001</ele>
   </trkpt>
   <trkpt lat="45.99387" lon="11.32351">
    <ele>516.7400000000001</ele>
   </trkpt>
   <trkpt lat="45.99429000000001" lon="11.323530000000002">
    <ele>508.99000000000007</ele>
   </trkpt>
   <trkpt lat="45.99443" lon="11.323580000000002">
    <ele>506.93</ele>
   </trkpt>
   <trkpt lat="45.994490000000006" lon="11.323630000000001">
    <ele>505.62000000000006</ele>
   </trkpt>
   <trkpt lat="45.99466" lon="11.323960000000001">
    <ele>502.0800000000001</ele>
   </trkpt>
   <trkpt lat="45.994690000000006" lon="11.323970000000001">
    <ele>502.0800000000001</ele>
   </trkpt>
   <trkpt lat="45.994670000000006" lon="11.32357">
    <ele>495.89000000000004</ele>
   </trkpt>
   <trkpt lat="45.99468" lon="11.323360000000001">
    <ele>493.70000000000005</ele>
   </trkpt>
   <trkpt lat="45.99475" lon="11.32324">
    <ele>492.1</ele>
   </trkpt>
   <trkpt lat="45.99488" lon="11.323120000000001">
    <ele>490.93</ele>
   </trkpt>
   <trkpt lat="45.994910000000004" lon="11.323300000000001">
    <ele>491.6</ele>
   </trkpt>
   <trkpt lat="45.994980000000005" lon="11.32337">
    <ele>491.66</ele>
   </trkpt>
   <trkpt lat="45.9951" lon="11.32342">
    <ele>491.02000000000004</ele>
   </trkpt>
   <trkpt lat="45.995160000000006" lon="11.32351">
    <ele>491.13000000000005</ele>
   </trkpt>
   <trkpt lat="45.99522" lon="11.32404">
    <ele>491.94000000000005</ele>
   </trkpt>
   <trkpt lat="45.99546" lon="11.32506">
    <ele>493.65000000000003</ele>
   </trkpt>
   <trkpt lat="45.99625000021084" lon="11.3248850024812">
    <ele>480.77000000000004</ele>
   </trkpt>
   <trkpt lat="45.997040000000005" lon="11.324710000000001">
    <ele>466.78000000000003</ele>
   </trkpt>
   <trkpt lat="45.997260000000004" lon="11.32473">
    <ele>465.15000000000003</ele>
   </trkpt>
   <trkpt lat="45.99799500002204" lon="11.32485499833178">
    <ele>450.79</ele>
   </trkpt>
   <trkpt lat="45.99873" lon="11.32498">
    <ele>439.99000000000007</ele>
   </trkpt>
   <trkpt lat="45.99907" lon="11.32502">
    <ele>438.12</ele>
   </trkpt>
   <trkpt lat="45.999300000000005" lon="11.325080000000002">
    <ele>437.70000000000005</ele>
   </trkpt>
   <trkpt lat="45.999245002386836" lon="11.325820000749959">
    <ele>438.47</ele>
   </trkpt>
   <trkpt lat="45.999190000000006" lon="11.32656">
    <ele>439.27000000000004</ele>
   </trkpt>
   <trkpt lat="45.99915000000001" lon="11.327300000000001">
    <ele>440.32000000000005</ele>
   </trkpt>
   <trkpt lat="45.99918" lon="11.32741">
    <ele>440.25</ele>
   </trkpt>
   <trkpt lat="45.999230000000004" lon="11.32746">
    <ele>440.25</ele>
   </trkpt>
   <trkpt lat="45.99933" lon="11.327470000000002">
    <ele>440.00000000000006</ele>
   </trkpt>
   <trkpt lat="45.999590000000005" lon="11.327440000000001">
    <ele>439.32000000000005</ele>
   </trkpt>
   <trkpt lat="45.99985" lon="11.32732">
    <ele>438.6700000000001</ele>
   </trkpt>
   <trkpt lat="46.000060000000005" lon="11.327250000000001">
    <ele>438.37</ele>
   </trkpt>
   <trkpt lat="46.00029000000001" lon="11.32722">
    <ele>438.15000000000003</ele>
   </trkpt>
   <trkpt lat="46.000490000000006" lon="11.327240000000002">
    <ele>438.11000000000007</ele>
   </trkpt>
   <trkpt lat="46.00056000000001" lon="11.327200000000001">
    <ele>438.1700000000001</ele>
   </trkpt>
   <trkpt lat="46.000600000000006" lon="11.327150000000001">
    <ele>438.1700000000001</ele>
   </trkpt>
   <trkpt lat="46.00076000000001" lon="11.32708">
    <ele>437.82000000000005</ele>
   </trkpt>
   <trkpt lat="46.000930000000004" lon="11.32703">
    <ele>437.06000000000006</ele>
   </trkpt>
   <trkpt lat="46.001630000000006" lon="11.327100000000002">
    <ele>436.27000000000004</ele>
   </trkpt>
   <trkpt lat="46.00214499996951" lon="11.327184999198543">
    <ele>435.75</ele>
   </trkpt>
   <trkpt lat="46.002660000000006" lon="11.32727">
    <ele>434.99</ele>
   </trkpt>
   <trkpt lat="46.00313499984245" lon="11.327255000133796">
    <ele>434.52</ele>
   </trkpt>
   <trkpt lat="46.00361" lon="11.327240000000002">
    <ele>434.37</ele>
   </trkpt>
   <trkpt lat="46.00365" lon="11.32726">
    <ele>434.37</ele>
   </trkpt>
   <trkpt lat="46.003800000000005" lon="11.32722">
    <ele>434.28000000000003</ele>
   </trkpt>
   <trkpt lat="46.004180000000005" lon="11.327210000000001">
    <ele>434.28000000000003</ele>
   </trkpt>
   <trkpt lat="46.00442" lon="11.32723">
    <ele>434.14000000000004</ele>
   </trkpt>
   <trkpt lat="46.00462" lon="11.327280000000002">
    <ele>434.11000000000007</ele>
   </trkpt>
   <trkpt lat="46.00477" lon="11.327290000000001">
    <ele>434.1700000000001</ele>
   </trkpt>
   <trkpt lat="46.00477" lon="11.326970000000001">
    <ele>434.16</ele>
   </trkpt>
   <trkpt lat="46.00482" lon="11.32671">
    <ele>434.02</ele>
   </trkpt>
   <trkpt lat="46.00503500348071" lon="11.325815003529465">
    <ele>434.06000000000006</ele>
   </trkpt>
   <trkpt lat="46.005250000000004" lon="11.32492">
    <ele>434.29</ele>
   </trkpt>
   <trkpt lat="46.00544000000001" lon="11.323720000000002">
    <ele>434.62000000000006</ele>
   </trkpt>
   <trkpt lat="46.00555000000001" lon="11.323310000000001">
    <ele>434.15000000000003</ele>
   </trkpt>
  </trkseg>
 </trk>
</gpx>
