<?xml version="1.0" encoding="UTF-8"?>
<gpx creator="StravaGPX" version="1.1" xmlns="http://www.topografix.com/GPX/1/1" xmlns:xsi="http://www.w3.org/2001/XMLSchema-instance" xsi:schemaLocation="http://www.topografix.com/GPX/1/1 http://www.topografix.com/GPX/1/1/gpx.xsd">
 <metadata>
  <name>Giro Trail lago di Levico </name>
  <author>
   <name>Lorenzo Zanei</name>
   <link href="https://www.strava.com/athletes/572826"/>
  </author>
  <copyright author="OpenStreetMap contributors">
   <year>2020</year>
   <license>https://www.openstreetmap.org/copyright</license>
  </copyright>
  <link href="https://www.strava.com/routes/3540339508399156194"/>
 </metadata>
 <trk>
  <name>Giro Trail lago di Levico </name>
  <link href="https://www.strava.com/routes/3540339508399156194"/>
  <type>trail_running</type>
  <trkseg>
   <trkpt lat="46.00865" lon="11.291080000000001">
    <ele>448.09000000000003</ele>
   </trkpt>
   <trkpt lat="46.00901" lon="11.290590000000002">
    <ele>448.0</ele>
   </trkpt>
   <trkpt lat="46.00918" lon="11.29035">
    <ele>447.87000000000006</ele>
   </trkpt>
   <trkpt lat="46.00932" lon="11.29021">
    <ele>447.87000000000006</ele>
   </trkpt>
   <trkpt lat="46.00979" lon="11.289950000000001">
    <ele>447.99000000000007</ele>
   </trkpt>
   <trkpt lat="46.009780000000006" lon="11.289890000000002">
    <ele>447.58000000000004</ele>
   </trkpt>
   <trkpt lat="46.01026" lon="11.28963">
    <ele>447.98</ele>
   </trkpt>
   <trkpt lat="46.010310000000004" lon="11.28959">
    <ele>447.98</ele>
   </trkpt>
   <trkpt lat="46.01034000000001" lon="11.289520000000001">
    <ele>447.92</ele>
   </trkpt>
   <trkpt lat="46.01034000000001" lon="11.2894">
    <ele>447.75</ele>
   </trkpt>
   <trkpt lat="46.01044" lon="11.2894">
    <ele>447.90000000000003</ele>
   </trkpt>
   <trkpt lat="46.01044500561836" lon="11.288264999894427">
    <ele>445.37000000000006</ele>
   </trkpt>
   <trkpt lat="46.010450000000006" lon="11.287130000000001">
    <ele>443.27000000000004</ele>
   </trkpt>
   <trkpt lat="46.010470000000005" lon="11.286930000000002">
    <ele>443.05000000000007</ele>
   </trkpt>
   <trkpt lat="46.010810000000006" lon="11.286800000000001">
    <ele>443.00000000000006</ele>
   </trkpt>
   <trkpt lat="46.011010000000006" lon="11.28669">
    <ele>442.98</ele>
   </trkpt>
   <trkpt lat="46.01126000000001" lon="11.28659">
    <ele>442.90000000000003</ele>
   </trkpt>
   <trkpt lat="46.01146000000001" lon="11.286560000000001">
    <ele>443.15000000000003</ele>
   </trkpt>
   <trkpt lat="46.011540000000004" lon="11.286570000000001">
    <ele>443.13</ele>
   </trkpt>
   <trkpt lat="46.01196" lon="11.28673">
    <ele>442.74</ele>
   </trkpt>
   <trkpt lat="46.01203" lon="11.286850000000001">
    <ele>442.72</ele>
   </trkpt>
   <trkpt lat="46.01220000000001" lon="11.28701">
    <ele>442.51</ele>
   </trkpt>
   <trkpt lat="46.01265" lon="11.287080000000001">
    <ele>442.85</ele>
   </trkpt>
   <trkpt lat="46.012710000000006" lon="11.287070000000002">
    <ele>442.85</ele>
   </trkpt>
   <trkpt lat="46.012820000000005" lon="11.28702">
    <ele>442.85</ele>
   </trkpt>
   <trkpt lat="46.01294" lon="11.287">
    <ele>442.90000000000003</ele>
   </trkpt>
   <trkpt lat="46.012950000000004" lon="11.287">
    <ele>442.90000000000003</ele>
   </trkpt>
   <trkpt lat="46.01306" lon="11.287">
    <ele>442.99000000000007</ele>
   </trkpt>
   <trkpt lat="46.01321" lon="11.28696">
    <ele>442.99000000000007</ele>
   </trkpt>
   <trkpt lat="46.01333" lon="11.28697">
    <ele>443.00000000000006</ele>
   </trkpt>
   <trkpt lat="46.01388" lon="11.286940000000001">
    <ele>443.11000000000007</ele>
   </trkpt>
   <trkpt lat="46.014340000000004" lon="11.28683">
    <ele>443.39000000000004</ele>
   </trkpt>
   <trkpt lat="46.01484000000001" lon="11.287360000000001">
    <ele>445.09000000000003</ele>
   </trkpt>
   <trkpt lat="46.015010000000004" lon="11.28729">
    <ele>445.26000000000005</ele>
   </trkpt>
   <trkpt lat="46.015080000000005" lon="11.287120000000002">
    <ele>445.12</ele>
   </trkpt>
   <trkpt lat="46.015240000000006" lon="11.286140000000001">
    <ele>444.92</ele>
   </trkpt>
   <trkpt lat="46.01523" lon="11.286000000000001">
    <ele>444.90000000000003</ele>
   </trkpt>
   <trkpt lat="46.015350000000005" lon="11.28513">
    <ele>444.23</ele>
   </trkpt>
   <trkpt lat="46.01554500374941" lon="11.284200003384607">
    <ele>444.84000000000003</ele>
   </trkpt>
   <trkpt lat="46.01574" lon="11.283270000000002">
    <ele>446.11000000000007</ele>
   </trkpt>
   <trkpt lat="46.015995004005205" lon="11.282315004298">
    <ele>446.32000000000005</ele>
   </trkpt>
   <trkpt lat="46.01625000000001" lon="11.281360000000001">
    <ele>446.54</ele>
   </trkpt>
   <trkpt lat="46.016270000000006" lon="11.28101">
    <ele>446.38000000000005</ele>
   </trkpt>
   <trkpt lat="46.016420000000004" lon="11.28059">
    <ele>446.14000000000004</ele>
   </trkpt>
   <trkpt lat="46.01661000000001" lon="11.28029">
    <ele>446.22</ele>
   </trkpt>
   <trkpt lat="46.01670000000001" lon="11.279990000000002">
    <ele>446.22</ele>
   </trkpt>
   <trkpt lat="46.016890000000004" lon="11.278910000000002">
    <ele>446.13</ele>
   </trkpt>
   <trkpt lat="46.01697" lon="11.278590000000001">
    <ele>446.22</ele>
   </trkpt>
   <trkpt lat="46.01720000158683" lon="11.277975002725027">
    <ele>446.6</ele>
   </trkpt>
   <trkpt lat="46.017430000000004" lon="11.277360000000002">
    <ele>446.29</ele>
   </trkpt>
   <trkpt lat="46.017520000000005" lon="11.27696">
    <ele>446.19</ele>
   </trkpt>
   <trkpt lat="46.01762" lon="11.276330000000002">
    <ele>446.01</ele>
   </trkpt>
   <trkpt lat="46.017720000000004" lon="11.27602">
    <ele>445.37000000000006</ele>
   </trkpt>
   <trkpt lat="46.018190000000004" lon="11.27557">
    <ele>445.39000000000004</ele>
   </trkpt>
   <trkpt lat="46.018460000000005" lon="11.27541">
    <ele>445.26000000000005</ele>
   </trkpt>
   <trkpt lat="46.01896000000001" lon="11.275210000000001">
    <ele>445.44000000000005</ele>
   </trkpt>
   <trkpt lat="46.01926" lon="11.275030000000001">
    <ele>445.43000000000006</ele>
   </trkpt>
   <trkpt lat="46.019360000000006" lon="11.274970000000001">
    <ele>445.43000000000006</ele>
   </trkpt>
   <trkpt lat="46.019600000000004" lon="11.27472">
    <ele>445.37000000000006</ele>
   </trkpt>
   <trkpt lat="46.01991" lon="11.274540000000002">
    <ele>445.28</ele>
   </trkpt>
   <trkpt lat="46.020210000000006" lon="11.274450000000002">
    <ele>445.36</ele>
   </trkpt>
   <trkpt lat="46.020430000000005" lon="11.27433">
    <ele>445.39000000000004</ele>
   </trkpt>
   <trkpt lat="46.02076" lon="11.274090000000001">
    <ele>445.44000000000005</ele>
   </trkpt>
   <trkpt lat="46.02109" lon="11.273990000000001">
    <ele>445.39000000000004</ele>
   </trkpt>
   <trkpt lat="46.02159" lon="11.27416">
    <ele>445.34000000000003</ele>
   </trkpt>
   <trkpt lat="46.02179" lon="11.27416">
    <ele>445.38000000000005</ele>
   </trkpt>
   <trkpt lat="46.02194" lon="11.27401">
    <ele>445.38000000000005</ele>
   </trkpt>
   <trkpt lat="46.02205000000001" lon="11.273850000000001">
    <ele>445.48</ele>
   </trkpt>
   <trkpt lat="46.02214" lon="11.27341">
    <ele>445.51</ele>
   </trkpt>
   <trkpt lat="46.022290000000005" lon="11.273150000000001">
    <ele>445.49000000000007</ele>
   </trkpt>
   <trkpt lat="46.022470000000006" lon="11.27265">
    <ele>445.41</ele>
   </trkpt>
   <trkpt lat="46.022710000000004" lon="11.27223">
    <ele>445.45</ele>
   </trkpt>
   <trkpt lat="46.02290000000001" lon="11.271830000000001">
    <ele>445.56</ele>
   </trkpt>
   <trkpt lat="46.02299000000001" lon="11.27134">
    <ele>445.28</ele>
   </trkpt>
   <trkpt lat="46.023030000000006" lon="11.271220000000001">
    <ele>445.31</ele>
   </trkpt>
   <trkpt lat="46.023480000000006" lon="11.270370000000002">
    <ele>445.27000000000004</ele>
   </trkpt>
   <trkpt lat="46.023720000000004" lon="11.270010000000001">
    <ele>445.32000000000005</ele>
   </trkpt>
   <trkpt lat="46.023920000000004" lon="11.26983">
    <ele>445.47</ele>
   </trkpt>
   <trkpt lat="46.024280000000005" lon="11.2697">
    <ele>445.3</ele>
   </trkpt>
   <trkpt lat="46.02456" lon="11.26964">
    <ele>445.33000000000004</ele>
   </trkpt>
   <trkpt lat="46.02478000000001" lon="11.269540000000001">
    <ele>446.69</ele>
   </trkpt>
   <trkpt lat="46.024910000000006" lon="11.26951">
    <ele>448.83000000000004</ele>
   </trkpt>
   <trkpt lat="46.02506" lon="11.2695">
    <ele>451.56</ele>
   </trkpt>
   <trkpt lat="46.02517" lon="11.269530000000001">
    <ele>453.31000000000006</ele>
   </trkpt>
   <trkpt lat="46.025450000000006" lon="11.26936">
    <ele>453.15000000000003</ele>
   </trkpt>
   <trkpt lat="46.02578500106431" lon="11.268900002593165">
    <ele>452.92</ele>
   </trkpt>
   <trkpt lat="46.026120000000006" lon="11.268440000000002">
    <ele>453.45</ele>
   </trkpt>
   <trkpt lat="46.02666000000001" lon="11.26781">
    <ele>452.34000000000003</ele>
   </trkpt>
   <trkpt lat="46.026920000000004" lon="11.26762">
    <ele>449.73</ele>
   </trkpt>
   <trkpt lat="46.02745" lon="11.26744">
    <ele>448.18</ele>
   </trkpt>
   <trkpt lat="46.027680000000004" lon="11.267470000000001">
    <ele>448.06</ele>
   </trkpt>
   <trkpt lat="46.0283" lon="11.267750000000001">
    <ele>448.11000000000007</ele>
   </trkpt>
   <trkpt lat="46.029030000000006" lon="11.26754">
    <ele>449.97</ele>
   </trkpt>
   <trkpt lat="46.02928000000001" lon="11.267420000000001">
    <ele>452.23</ele>
   </trkpt>
   <trkpt lat="46.02929" lon="11.267420000000001">
    <ele>452.21000000000004</ele>
   </trkpt>
   <trkpt lat="46.029450000000004" lon="11.26735">
    <ele>453.59000000000003</ele>
   </trkpt>
   <trkpt lat="46.029650000000004" lon="11.2672">
    <ele>457.65000000000003</ele>
   </trkpt>
   <trkpt lat="46.029880000000006" lon="11.26698">
    <ele>459.05</ele>
   </trkpt>
   <trkpt lat="46.03009" lon="11.26675">
    <ele>461.6</ele>
   </trkpt>
   <trkpt lat="46.03049" lon="11.266200000000001">
    <ele>468.55</ele>
   </trkpt>
   <trkpt lat="46.031130000000005" lon="11.26553">
    <ele>475.58000000000004</ele>
   </trkpt>
   <trkpt lat="46.031760000000006" lon="11.264740000000002">
    <ele>479.21000000000004</ele>
   </trkpt>
   <trkpt lat="46.031890000000004" lon="11.26453">
    <ele>480.67</ele>
   </trkpt>
   <trkpt lat="46.03213" lon="11.264080000000002">
    <ele>481.62000000000006</ele>
   </trkpt>
   <trkpt lat="46.03276" lon="11.263190000000002">
    <ele>481.72</ele>
   </trkpt>
   <trkpt lat="46.032880000000006" lon="11.26304">
    <ele>481.72</ele>
   </trkpt>
   <trkpt lat="46.03307" lon="11.262860000000002">
    <ele>481.88</ele>
   </trkpt>
   <trkpt lat="46.03343" lon="11.26256">
    <ele>482.74000000000007</ele>
   </trkpt>
   <trkpt lat="46.033640000000005" lon="11.262250000000002">
    <ele>483.11</ele>
   </trkpt>
   <trkpt lat="46.033660000000005" lon="11.262170000000001">
    <ele>483.11</ele>
   </trkpt>
   <trkpt lat="46.03381" lon="11.26176">
    <ele>483.59000000000003</ele>
   </trkpt>
   <trkpt lat="46.034060000000004" lon="11.26064">
    <ele>484.00000000000006</ele>
   </trkpt>
   <trkpt lat="46.03416000000001" lon="11.26035">
    <ele>484.25</ele>
   </trkpt>
   <trkpt lat="46.034380000000006" lon="11.259870000000001">
    <ele>484.59000000000003</ele>
   </trkpt>
   <trkpt lat="46.03446" lon="11.25965">
    <ele>484.72</ele>
   </trkpt>
   <trkpt lat="46.034510000000004" lon="11.259260000000001">
    <ele>485.16</ele>
   </trkpt>
   <trkpt lat="46.03443" lon="11.258370000000001">
    <ele>486.01000000000005</ele>
   </trkpt>
   <trkpt lat="46.03443" lon="11.25774">
    <ele>486.77000000000004</ele>
   </trkpt>
   <trkpt lat="46.03439" lon="11.257480000000001">
    <ele>487.07000000000005</ele>
   </trkpt>
   <trkpt lat="46.034290000000006" lon="11.25717">
    <ele>487.76</ele>
   </trkpt>
   <trkpt lat="46.034240000000004" lon="11.25689">
    <ele>489.18000000000006</ele>
   </trkpt>
   <trkpt lat="46.03425000000001" lon="11.256440000000001">
    <ele>489.54</ele>
   </trkpt>
   <trkpt lat="46.03425000000001" lon="11.256450000000001">
    <ele>489.54</ele>
   </trkpt>
   <trkpt lat="46.03427000000001" lon="11.255680000000002">
    <ele>491.26000000000005</ele>
   </trkpt>
   <trkpt lat="46.03441" lon="11.25519">
    <ele>493.2900000000001</ele>
   </trkpt>
   <trkpt lat="46.034690000000005" lon="11.25468">
    <ele>494.58</ele>
   </trkpt>
   <trkpt lat="46.03473" lon="11.25459">
    <ele>494.47</ele>
   </trkpt>
   <trkpt lat="46.03506" lon="11.253430000000002">
    <ele>492.50000000000006</ele>
   </trkpt>
   <trkpt lat="46.035180000000004" lon="11.253100000000002">
    <ele>492.72</ele>
   </trkpt>
   <trkpt lat="46.03530000000001" lon="11.25285">
    <ele>493.1</ele>
   </trkpt>
   <trkpt lat="46.034870000000005" lon="11.252180000000001">
    <ele>495.14</ele>
   </trkpt>
   <trkpt lat="46.03477" lon="11.25201">
    <ele>496.70000000000005</ele>
   </trkpt>
   <trkpt lat="46.034690000000005" lon="11.251850000000001">
    <ele>498.51000000000005</ele>
   </trkpt>
   <trkpt lat="46.034620000000004" lon="11.25159">
    <ele>502.09000000000003</ele>
   </trkpt>
   <trkpt lat="46.0345" lon="11.251270000000002">
    <ele>504.31</ele>
   </trkpt>
   <trkpt lat="46.03435" lon="11.25093">
    <ele>507.99000000000007</ele>
   </trkpt>
   <trkpt lat="46.034180000000006" lon="11.250660000000002">
    <ele>511.70000000000005</ele>
   </trkpt>
   <trkpt lat="46.03403" lon="11.250520000000002">
    <ele>514.11</ele>
   </trkpt>
   <trkpt lat="46.03385" lon="11.250430000000001">
    <ele>516.7700000000001</ele>
   </trkpt>
   <trkpt lat="46.03367" lon="11.25037">
    <ele>518.2800000000001</ele>
   </trkpt>
   <trkpt lat="46.033550000000005" lon="11.250390000000001">
    <ele>521.51</ele>
   </trkpt>
   <trkpt lat="46.03343" lon="11.25056">
    <ele>523.54</ele>
   </trkpt>
   <trkpt lat="46.03316" lon="11.25079">
    <ele>528.27</ele>
   </trkpt>
   <trkpt lat="46.0332" lon="11.251280000000001">
    <ele>527.71</ele>
   </trkpt>
   <trkpt lat="46.033120000000004" lon="11.25144">
    <ele>528.48</ele>
   </trkpt>
   <trkpt lat="46.03305" lon="11.25163">
    <ele>529.9</ele>
   </trkpt>
   <trkpt lat="46.03316" lon="11.25219">
    <ele>531.54</ele>
   </trkpt>
   <trkpt lat="46.03314" lon="11.25257">
    <ele>531.9200000000001</ele>
   </trkpt>
   <trkpt lat="46.03294" lon="11.25299">
    <ele>532.35</ele>
   </trkpt>
   <trkpt lat="46.032920000000004" lon="11.253290000000002">
    <ele>532.1</ele>
   </trkpt>
   <trkpt lat="46.03282" lon="11.2535">
    <ele>530.91</ele>
   </trkpt>
   <trkpt lat="46.032520000000005" lon="11.253730000000001">
    <ele>530.73</ele>
   </trkpt>
   <trkpt lat="46.03242" lon="11.254090000000001">
    <ele>527.88</ele>
   </trkpt>
   <trkpt lat="46.03247" lon="11.25444">
    <ele>518.4700000000001</ele>
   </trkpt>
   <trkpt lat="46.03249" lon="11.255400000000002">
    <ele>502.51</ele>
   </trkpt>
   <trkpt lat="46.03269" lon="11.256070000000001">
    <ele>490.91</ele>
   </trkpt>
   <trkpt lat="46.03258" lon="11.257060000000001">
    <ele>488.40000000000003</ele>
   </trkpt>
   <trkpt lat="46.03258" lon="11.25707">
    <ele>488.40000000000003</ele>
   </trkpt>
   <trkpt lat="46.03253" lon="11.257610000000001">
    <ele>487.15000000000003</ele>
   </trkpt>
   <trkpt lat="46.03237000167766" lon="11.258230001789121">
    <ele>486.47</ele>
   </trkpt>
   <trkpt lat="46.032210000000006" lon="11.25885">
    <ele>484.92</ele>
   </trkpt>
   <trkpt lat="46.03210000000001" lon="11.26012">
    <ele>483.65000000000003</ele>
   </trkpt>
   <trkpt lat="46.03211000195429" lon="11.260789999668201">
    <ele>482.45000000000005</ele>
   </trkpt>
   <trkpt lat="46.032120000000006" lon="11.261460000000001">
    <ele>481.74000000000007</ele>
   </trkpt>
   <trkpt lat="46.032270000000004" lon="11.262160000000002">
    <ele>480.65000000000003</ele>
   </trkpt>
   <trkpt lat="46.032300000000006" lon="11.26265">
    <ele>478.84000000000003</ele>
   </trkpt>
   <trkpt lat="46.03215" lon="11.26312">
    <ele>478.47</ele>
   </trkpt>
   <trkpt lat="46.03192000000001" lon="11.2635">
    <ele>476.54</ele>
   </trkpt>
   <trkpt lat="46.03168" lon="11.26384">
    <ele>478.64000000000004</ele>
   </trkpt>
   <trkpt lat="46.03137" lon="11.264220000000002">
    <ele>486.51000000000005</ele>
   </trkpt>
   <trkpt lat="46.031200000000005" lon="11.264270000000002">
    <ele>488.62000000000006</ele>
   </trkpt>
   <trkpt lat="46.0309" lon="11.2643">
    <ele>494.76000000000005</ele>
   </trkpt>
   <trkpt lat="46.03043000006289" lon="11.264219999325672">
    <ele>503.5200000000001</ele>
   </trkpt>
   <trkpt lat="46.02996" lon="11.264140000000001">
    <ele>506.09000000000003</ele>
   </trkpt>
   <trkpt lat="46.02964" lon="11.263990000000002">
    <ele>508.4000000000001</ele>
   </trkpt>
   <trkpt lat="46.029300000000006" lon="11.263950000000001">
    <ele>512.3199999999999</ele>
   </trkpt>
   <trkpt lat="46.028960000000005" lon="11.264000000000001">
    <ele>512.73</ele>
   </trkpt>
   <trkpt lat="46.028850000000006" lon="11.263810000000001">
    <ele>514.73</ele>
   </trkpt>
   <trkpt lat="46.028780000000005" lon="11.263750000000002">
    <ele>516.0</ele>
   </trkpt>
   <trkpt lat="46.02872000000001" lon="11.263580000000001">
    <ele>518.08</ele>
   </trkpt>
   <trkpt lat="46.028670000000005" lon="11.263490000000001">
    <ele>518.75</ele>
   </trkpt>
   <trkpt lat="46.028600000000004" lon="11.263470000000002">
    <ele>519.97</ele>
   </trkpt>
   <trkpt lat="46.028580000000005" lon="11.263470000000002">
    <ele>520.1</ele>
   </trkpt>
   <trkpt lat="46.02832" lon="11.263160000000001">
    <ele>526.2600000000001</ele>
   </trkpt>
   <trkpt lat="46.02814" lon="11.26276">
    <ele>536.3100000000001</ele>
   </trkpt>
   <trkpt lat="46.02803" lon="11.2629">
    <ele>539.25</ele>
   </trkpt>
   <trkpt lat="46.02799" lon="11.26289">
    <ele>539.81</ele>
   </trkpt>
   <trkpt lat="46.028000000000006" lon="11.2626">
    <ele>540.2900000000001</ele>
   </trkpt>
   <trkpt lat="46.027550000000005" lon="11.262970000000001">
    <ele>533.7900000000001</ele>
   </trkpt>
   <trkpt lat="46.027590000000004" lon="11.262770000000002">
    <ele>530.46</ele>
   </trkpt>
   <trkpt lat="46.027170000000005" lon="11.26284">
    <ele>521.5000000000001</ele>
   </trkpt>
   <trkpt lat="46.027080000000005" lon="11.26359">
    <ele>521.4000000000001</ele>
   </trkpt>
   <trkpt lat="46.02691" lon="11.263800000000002">
    <ele>521.86</ele>
   </trkpt>
   <trkpt lat="46.02646000000001" lon="11.264280000000001">
    <ele>517.44</ele>
   </trkpt>
   <trkpt lat="46.0262" lon="11.264500000000002">
    <ele>514.7900000000001</ele>
   </trkpt>
   <trkpt lat="46.02601000000001" lon="11.26472">
    <ele>509.14000000000004</ele>
   </trkpt>
   <trkpt lat="46.02601000000001" lon="11.264710000000001">
    <ele>509.14000000000004</ele>
   </trkpt>
   <trkpt lat="46.02584" lon="11.26492">
    <ele>504.05</ele>
   </trkpt>
   <trkpt lat="46.02563000000001" lon="11.26501">
    <ele>500.07</ele>
   </trkpt>
   <trkpt lat="46.02535" lon="11.265310000000001">
    <ele>491.00000000000006</ele>
   </trkpt>
   <trkpt lat="46.025200000000005" lon="11.26557">
    <ele>486.88000000000005</ele>
   </trkpt>
   <trkpt lat="46.02482000102271" lon="11.266065003462126">
    <ele>478.83000000000004</ele>
   </trkpt>
   <trkpt lat="46.024440000000006" lon="11.26656">
    <ele>465.52000000000004</ele>
   </trkpt>
   <trkpt lat="46.024370000000005" lon="11.26674">
    <ele>461.65000000000003</ele>
   </trkpt>
   <trkpt lat="46.024390000000004" lon="11.26688">
    <ele>457.44</ele>
   </trkpt>
   <trkpt lat="46.024210000000004" lon="11.266910000000001">
    <ele>458.67</ele>
   </trkpt>
   <trkpt lat="46.02409" lon="11.267100000000001">
    <ele>460.39</ele>
   </trkpt>
   <trkpt lat="46.02413000000001" lon="11.267280000000001">
    <ele>461.02000000000004</ele>
   </trkpt>
   <trkpt lat="46.024100000000004" lon="11.26735">
    <ele>461.28000000000003</ele>
   </trkpt>
   <trkpt lat="46.02407" lon="11.2674">
    <ele>461.28000000000003</ele>
   </trkpt>
   <trkpt lat="46.023970000000006" lon="11.26744">
    <ele>462.43000000000006</ele>
   </trkpt>
   <trkpt lat="46.0238" lon="11.267560000000001">
    <ele>464.8</ele>
   </trkpt>
   <trkpt lat="46.02376" lon="11.267840000000001">
    <ele>467.05</ele>
   </trkpt>
   <trkpt lat="46.023680000000006" lon="11.26787">
    <ele>467.05</ele>
   </trkpt>
   <trkpt lat="46.023610000000005" lon="11.26796">
    <ele>469.66</ele>
   </trkpt>
   <trkpt lat="46.023320000000005" lon="11.26815">
    <ele>472.4200000000001</ele>
   </trkpt>
   <trkpt lat="46.023300000000006" lon="11.268260000000001">
    <ele>473.87</ele>
   </trkpt>
   <trkpt lat="46.023230000000005" lon="11.268300000000002">
    <ele>474.43</ele>
   </trkpt>
   <trkpt lat="46.02313" lon="11.268450000000001">
    <ele>476.88</ele>
   </trkpt>
   <trkpt lat="46.02306" lon="11.268490000000002">
    <ele>477.40000000000003</ele>
   </trkpt>
   <trkpt lat="46.022890000000004" lon="11.268540000000002">
    <ele>477.88</ele>
   </trkpt>
   <trkpt lat="46.02282" lon="11.2687">
    <ele>481.03000000000003</ele>
   </trkpt>
   <trkpt lat="46.022470000000006" lon="11.26884">
    <ele>483.71000000000004</ele>
   </trkpt>
   <trkpt lat="46.02244" lon="11.268820000000002">
    <ele>484.15000000000003</ele>
   </trkpt>
   <trkpt lat="46.022270000000006" lon="11.268870000000001">
    <ele>486.13000000000005</ele>
   </trkpt>
   <trkpt lat="46.02219" lon="11.268910000000002">
    <ele>487.03000000000003</ele>
   </trkpt>
   <trkpt lat="46.02196000000001" lon="11.268830000000001">
    <ele>488.81</ele>
   </trkpt>
   <trkpt lat="46.021820000000005" lon="11.2687">
    <ele>489.93</ele>
   </trkpt>
   <trkpt lat="46.02174" lon="11.268780000000001">
    <ele>490.97</ele>
   </trkpt>
   <trkpt lat="46.021660000000004" lon="11.26876">
    <ele>490.97</ele>
   </trkpt>
   <trkpt lat="46.02159" lon="11.26872">
    <ele>492.50000000000006</ele>
   </trkpt>
   <trkpt lat="46.021510000000006" lon="11.268730000000001">
    <ele>492.50000000000006</ele>
   </trkpt>
   <trkpt lat="46.02143" lon="11.268690000000001">
    <ele>493.71000000000004</ele>
   </trkpt>
   <trkpt lat="46.02121" lon="11.26853">
    <ele>495.43</ele>
   </trkpt>
   <trkpt lat="46.02103" lon="11.26852">
    <ele>497.76000000000005</ele>
   </trkpt>
   <trkpt lat="46.02085" lon="11.26847">
    <ele>499.34000000000003</ele>
   </trkpt>
   <trkpt lat="46.020770000000006" lon="11.268440000000002">
    <ele>499.6700000000001</ele>
   </trkpt>
   <trkpt lat="46.020700000000005" lon="11.26837">
    <ele>500.84000000000003</ele>
   </trkpt>
   <trkpt lat="46.02062" lon="11.26838">
    <ele>501.18000000000006</ele>
   </trkpt>
   <trkpt lat="46.020540000000004" lon="11.26833">
    <ele>502.01000000000005</ele>
   </trkpt>
   <trkpt lat="46.020430000000005" lon="11.268300000000002">
    <ele>503.04</ele>
   </trkpt>
   <trkpt lat="46.020360000000004" lon="11.26833">
    <ele>504.71</ele>
   </trkpt>
   <trkpt lat="46.02031" lon="11.268400000000002">
    <ele>504.71</ele>
   </trkpt>
   <trkpt lat="46.02015" lon="11.268410000000001">
    <ele>506.77000000000004</ele>
   </trkpt>
   <trkpt lat="46.02006" lon="11.26848">
    <ele>507.58000000000004</ele>
   </trkpt>
   <trkpt lat="46.01997" lon="11.268510000000001">
    <ele>507.58000000000004</ele>
   </trkpt>
   <trkpt lat="46.01964" lon="11.26857">
    <ele>512.0100000000001</ele>
   </trkpt>
   <trkpt lat="46.01959" lon="11.26861">
    <ele>512.0100000000001</ele>
   </trkpt>
   <trkpt lat="46.01916000000001" lon="11.268790000000001">
    <ele>516.82</ele>
   </trkpt>
   <trkpt lat="46.019070000000006" lon="11.2688">
    <ele>516.82</ele>
   </trkpt>
   <trkpt lat="46.01899" lon="11.268830000000001">
    <ele>517.84</ele>
   </trkpt>
   <trkpt lat="46.018950000000004" lon="11.2689">
    <ele>517.84</ele>
   </trkpt>
   <trkpt lat="46.018800000000006" lon="11.269">
    <ele>522.15</ele>
   </trkpt>
   <trkpt lat="46.01872" lon="11.269020000000001">
    <ele>522.15</ele>
   </trkpt>
   <trkpt lat="46.018660000000004" lon="11.26908">
    <ele>522.15</ele>
   </trkpt>
   <trkpt lat="46.01858000000001" lon="11.269120000000001">
    <ele>524.72</ele>
   </trkpt>
   <trkpt lat="46.018510000000006" lon="11.269200000000001">
    <ele>524.72</ele>
   </trkpt>
   <trkpt lat="46.01841" lon="11.26923">
    <ele>525.71</ele>
   </trkpt>
   <trkpt lat="46.01829" lon="11.269350000000001">
    <ele>527.63</ele>
   </trkpt>
   <trkpt lat="46.017860000000006" lon="11.269580000000001">
    <ele>532.93</ele>
   </trkpt>
   <trkpt lat="46.01774" lon="11.2697">
    <ele>534.2900000000001</ele>
   </trkpt>
   <trkpt lat="46.01766000000001" lon="11.26975">
    <ele>535.09</ele>
   </trkpt>
   <trkpt lat="46.01729" lon="11.269850000000002">
    <ele>537.3</ele>
   </trkpt>
   <trkpt lat="46.0172" lon="11.269820000000001">
    <ele>537.86</ele>
   </trkpt>
   <trkpt lat="46.017140000000005" lon="11.26975">
    <ele>538.07</ele>
   </trkpt>
   <trkpt lat="46.01668" lon="11.26975">
    <ele>541.32</ele>
   </trkpt>
   <trkpt lat="46.016600000000004" lon="11.269820000000001">
    <ele>542.07</ele>
   </trkpt>
   <trkpt lat="46.016470000000005" lon="11.27007">
    <ele>543.42</ele>
   </trkpt>
   <trkpt lat="46.01639" lon="11.270150000000001">
    <ele>544.4300000000001</ele>
   </trkpt>
   <trkpt lat="46.016310000000004" lon="11.2702">
    <ele>546.2800000000001</ele>
   </trkpt>
   <trkpt lat="46.01621" lon="11.2702">
    <ele>547.42</ele>
   </trkpt>
   <trkpt lat="46.01614000000001" lon="11.270230000000002">
    <ele>547.95</ele>
   </trkpt>
   <trkpt lat="46.016070000000006" lon="11.2703">
    <ele>549.46</ele>
   </trkpt>
   <trkpt lat="46.01597" lon="11.270320000000002">
    <ele>550.12</ele>
   </trkpt>
   <trkpt lat="46.015660000000004" lon="11.2705">
    <ele>552.39</ele>
   </trkpt>
   <trkpt lat="46.015570000000004" lon="11.270650000000002">
    <ele>554.57</ele>
   </trkpt>
   <trkpt lat="46.01554" lon="11.27063">
    <ele>554.57</ele>
   </trkpt>
   <trkpt lat="46.01556" lon="11.27055">
    <ele>555.9200000000001</ele>
   </trkpt>
   <trkpt lat="46.01554" lon="11.270330000000001">
    <ele>557.61</ele>
   </trkpt>
   <trkpt lat="46.01549000000001" lon="11.27017">
    <ele>559.7</ele>
   </trkpt>
   <trkpt lat="46.015600000000006" lon="11.269730000000001">
    <ele>564.96</ele>
   </trkpt>
   <trkpt lat="46.0157" lon="11.269480000000001">
    <ele>565.84</ele>
   </trkpt>
   <trkpt lat="46.01568" lon="11.269250000000001">
    <ele>565.91</ele>
   </trkpt>
   <trkpt lat="46.01561" lon="11.26922">
    <ele>565.97</ele>
   </trkpt>
   <trkpt lat="46.01552" lon="11.26922">
    <ele>566.0500000000001</ele>
   </trkpt>
   <trkpt lat="46.01545" lon="11.269160000000001">
    <ele>566.2900000000001</ele>
   </trkpt>
   <trkpt lat="46.01536" lon="11.26914">
    <ele>566.71</ele>
   </trkpt>
   <trkpt lat="46.015130000000006" lon="11.26899">
    <ele>567.13</ele>
   </trkpt>
   <trkpt lat="46.015130000000006" lon="11.26898">
    <ele>567.1400000000001</ele>
   </trkpt>
   <trkpt lat="46.01509" lon="11.26889">
    <ele>567.25</ele>
   </trkpt>
   <trkpt lat="46.015010000000004" lon="11.2688">
    <ele>567.6500000000001</ele>
   </trkpt>
   <trkpt lat="46.01474" lon="11.268640000000001">
    <ele>569.9300000000001</ele>
   </trkpt>
   <trkpt lat="46.01465" lon="11.268440000000002">
    <ele>572.5400000000001</ele>
   </trkpt>
   <trkpt lat="46.01482" lon="11.26922">
    <ele>565.5300000000001</ele>
   </trkpt>
   <trkpt lat="46.0148" lon="11.26951">
    <ele>562.1</ele>
   </trkpt>
   <trkpt lat="46.01473000000001" lon="11.26988">
    <ele>557.83</ele>
   </trkpt>
   <trkpt lat="46.01476" lon="11.269960000000001">
    <ele>557.12</ele>
   </trkpt>
   <trkpt lat="46.01476" lon="11.270040000000002">
    <ele>556.44</ele>
   </trkpt>
   <trkpt lat="46.01476" lon="11.270050000000001">
    <ele>556.44</ele>
   </trkpt>
   <trkpt lat="46.01469" lon="11.270460000000002">
    <ele>550.97</ele>
   </trkpt>
   <trkpt lat="46.01464000000001" lon="11.27054">
    <ele>550.97</ele>
   </trkpt>
   <trkpt lat="46.01453" lon="11.27097">
    <ele>545.79</ele>
   </trkpt>
   <trkpt lat="46.014520000000005" lon="11.2711">
    <ele>544.48</ele>
   </trkpt>
   <trkpt lat="46.014430000000004" lon="11.2713">
    <ele>543.0400000000001</ele>
   </trkpt>
   <trkpt lat="46.0144" lon="11.271560000000001">
    <ele>538.85</ele>
   </trkpt>
   <trkpt lat="46.01436" lon="11.27162">
    <ele>538.85</ele>
   </trkpt>
   <trkpt lat="46.014190000000006" lon="11.27177">
    <ele>533.5300000000001</ele>
   </trkpt>
   <trkpt lat="46.01341" lon="11.271840000000001">
    <ele>544.15</ele>
   </trkpt>
   <trkpt lat="46.01319" lon="11.271790000000001">
    <ele>546.69</ele>
   </trkpt>
   <trkpt lat="46.01296000000001" lon="11.271790000000001">
    <ele>551.37</ele>
   </trkpt>
   <trkpt lat="46.01238" lon="11.271920000000001">
    <ele>556.4</ele>
   </trkpt>
   <trkpt lat="46.01205" lon="11.27181">
    <ele>558.39</ele>
   </trkpt>
   <trkpt lat="46.012170000000005" lon="11.27252">
    <ele>552.7800000000001</ele>
   </trkpt>
   <trkpt lat="46.012170000000005" lon="11.272760000000002">
    <ele>552.7800000000001</ele>
   </trkpt>
   <trkpt lat="46.012150000000005" lon="11.27298">
    <ele>550.8000000000001</ele>
   </trkpt>
   <trkpt lat="46.012100000000004" lon="11.273100000000001">
    <ele>550.34</ele>
   </trkpt>
   <trkpt lat="46.01203" lon="11.273140000000001">
    <ele>548.86</ele>
   </trkpt>
   <trkpt lat="46.011970000000005" lon="11.273150000000001">
    <ele>548.86</ele>
   </trkpt>
   <trkpt lat="46.01187" lon="11.27308">
    <ele>547.4300000000001</ele>
   </trkpt>
   <trkpt lat="46.01156" lon="11.27269">
    <ele>543.6500000000001</ele>
   </trkpt>
   <trkpt lat="46.011320000000005" lon="11.272430000000002">
    <ele>539.78</ele>
   </trkpt>
   <trkpt lat="46.01109" lon="11.272250000000001">
    <ele>536.44</ele>
   </trkpt>
   <trkpt lat="46.010920000000006" lon="11.272170000000001">
    <ele>534.5000000000001</ele>
   </trkpt>
   <trkpt lat="46.010780000000004" lon="11.272170000000001">
    <ele>533.1600000000001</ele>
   </trkpt>
   <trkpt lat="46.010670000000005" lon="11.27224">
    <ele>532.03</ele>
   </trkpt>
   <trkpt lat="46.01044" lon="11.2726">
    <ele>529.94</ele>
   </trkpt>
   <trkpt lat="46.01026" lon="11.27302">
    <ele>526.5300000000001</ele>
   </trkpt>
   <trkpt lat="46.010000002996" lon="11.273850003927224">
    <ele>522.14</ele>
   </trkpt>
   <trkpt lat="46.00974" lon="11.27468">
    <ele>517.21</ele>
   </trkpt>
   <trkpt lat="46.00956" lon="11.27494">
    <ele>515.29</ele>
   </trkpt>
   <trkpt lat="46.00959" lon="11.275110000000002">
    <ele>514.08</ele>
   </trkpt>
   <trkpt lat="46.009570000000004" lon="11.27527">
    <ele>512.3100000000001</ele>
   </trkpt>
   <trkpt lat="46.009440000000005" lon="11.275350000000001">
    <ele>512.3100000000001</ele>
   </trkpt>
   <trkpt lat="46.00929000000001" lon="11.275500000000001">
    <ele>510.19</ele>
   </trkpt>
   <trkpt lat="46.009280000000004" lon="11.27556">
    <ele>510.19</ele>
   </trkpt>
   <trkpt lat="46.009240000000005" lon="11.275640000000001">
    <ele>507.05</ele>
   </trkpt>
   <trkpt lat="46.00912" lon="11.275780000000001">
    <ele>507.05</ele>
   </trkpt>
   <trkpt lat="46.009100000000004" lon="11.27589">
    <ele>507.05</ele>
   </trkpt>
   <trkpt lat="46.00905" lon="11.27598">
    <ele>505.30000000000007</ele>
   </trkpt>
   <trkpt lat="46.008950000000006" lon="11.27604">
    <ele>503.89000000000004</ele>
   </trkpt>
   <trkpt lat="46.008900000000004" lon="11.27612">
    <ele>503.89000000000004</ele>
   </trkpt>
   <trkpt lat="46.008860000000006" lon="11.276110000000001">
    <ele>503.89000000000004</ele>
   </trkpt>
   <trkpt lat="46.008750000000006" lon="11.276230000000002">
    <ele>501.86000000000007</ele>
   </trkpt>
   <trkpt lat="46.008720000000004" lon="11.276380000000001">
    <ele>500.41</ele>
   </trkpt>
   <trkpt lat="46.00865" lon="11.276380000000001">
    <ele>499.49</ele>
   </trkpt>
   <trkpt lat="46.00865" lon="11.276510000000002">
    <ele>498.61000000000007</ele>
   </trkpt>
   <trkpt lat="46.00854" lon="11.27665">
    <ele>496.7900000000001</ele>
   </trkpt>
   <trkpt lat="46.00851" lon="11.276720000000001">
    <ele>496.7900000000001</ele>
   </trkpt>
   <trkpt lat="46.00851" lon="11.27673">
    <ele>496.85</ele>
   </trkpt>
   <trkpt lat="46.00846000000001" lon="11.27687">
    <ele>496.09000000000003</ele>
   </trkpt>
   <trkpt lat="46.00847" lon="11.27693">
    <ele>496.09000000000003</ele>
   </trkpt>
   <trkpt lat="46.008370000000006" lon="11.27707">
    <ele>494.28000000000003</ele>
   </trkpt>
   <trkpt lat="46.00835000000001" lon="11.277170000000002">
    <ele>494.28000000000003</ele>
   </trkpt>
   <trkpt lat="46.00831" lon="11.27726">
    <ele>492.74000000000007</ele>
   </trkpt>
   <trkpt lat="46.00826000000001" lon="11.27734">
    <ele>492.74000000000007</ele>
   </trkpt>
   <trkpt lat="46.00822" lon="11.277330000000001">
    <ele>492.74000000000007</ele>
   </trkpt>
   <trkpt lat="46.008190000000006" lon="11.27738">
    <ele>491.63000000000005</ele>
   </trkpt>
   <trkpt lat="46.00818" lon="11.277460000000001">
    <ele>491.63000000000005</ele>
   </trkpt>
   <trkpt lat="46.0082" lon="11.27754">
    <ele>490.86</ele>
   </trkpt>
   <trkpt lat="46.00817000000001" lon="11.27762">
    <ele>490.04</ele>
   </trkpt>
   <trkpt lat="46.00815" lon="11.277790000000001">
    <ele>488.28000000000003</ele>
   </trkpt>
   <trkpt lat="46.008100000000006" lon="11.277840000000001">
    <ele>488.28000000000003</ele>
   </trkpt>
   <trkpt lat="46.00809" lon="11.27791">
    <ele>488.28000000000003</ele>
   </trkpt>
   <trkpt lat="46.00802" lon="11.27796">
    <ele>486.57000000000005</ele>
   </trkpt>
   <trkpt lat="46.00802" lon="11.27804">
    <ele>486.57000000000005</ele>
   </trkpt>
   <trkpt lat="46.00798" lon="11.27824">
    <ele>485.35</ele>
   </trkpt>
   <trkpt lat="46.00777" lon="11.278500000000001">
    <ele>483.92</ele>
   </trkpt>
   <trkpt lat="46.00773" lon="11.27871">
    <ele>482.41</ele>
   </trkpt>
   <trkpt lat="46.007650000000005" lon="11.278870000000001">
    <ele>482.41</ele>
   </trkpt>
   <trkpt lat="46.00751" lon="11.278970000000001">
    <ele>478.84000000000003</ele>
   </trkpt>
   <trkpt lat="46.007470000000005" lon="11.279050000000002">
    <ele>478.84000000000003</ele>
   </trkpt>
   <trkpt lat="46.00746" lon="11.27913">
    <ele>478.84000000000003</ele>
   </trkpt>
   <trkpt lat="46.00739" lon="11.27932">
    <ele>476.86000000000007</ele>
   </trkpt>
   <trkpt lat="46.007380000000005" lon="11.27937">
    <ele>476.86000000000007</ele>
   </trkpt>
   <trkpt lat="46.007310000000004" lon="11.279470000000002">
    <ele>476.22</ele>
   </trkpt>
   <trkpt lat="46.007270000000005" lon="11.279490000000001">
    <ele>476.22</ele>
   </trkpt>
   <trkpt lat="46.007250000000006" lon="11.279530000000001">
    <ele>476.22</ele>
   </trkpt>
   <trkpt lat="46.00717" lon="11.27959">
    <ele>474.89000000000004</ele>
   </trkpt>
   <trkpt lat="46.007090000000005" lon="11.27969">
    <ele>474.89000000000004</ele>
   </trkpt>
   <trkpt lat="46.007070000000006" lon="11.279770000000001">
    <ele>474.89000000000004</ele>
   </trkpt>
   <trkpt lat="46.006980000000006" lon="11.279850000000001">
    <ele>471.70000000000005</ele>
   </trkpt>
   <trkpt lat="46.006890000000006" lon="11.28007">
    <ele>471.70000000000005</ele>
   </trkpt>
   <trkpt lat="46.00672" lon="11.2803">
    <ele>470.35</ele>
   </trkpt>
   <trkpt lat="46.00641" lon="11.28147">
    <ele>465.68</ele>
   </trkpt>
   <trkpt lat="46.006330000000005" lon="11.28171">
    <ele>463.16</ele>
   </trkpt>
   <trkpt lat="46.006280000000004" lon="11.282250000000001">
    <ele>460.20000000000005</ele>
   </trkpt>
   <trkpt lat="46.00629000000001" lon="11.282330000000002">
    <ele>459.55</ele>
   </trkpt>
   <trkpt lat="46.00625" lon="11.283610000000001">
    <ele>455.17</ele>
   </trkpt>
   <trkpt lat="46.00623" lon="11.283890000000001">
    <ele>452.72</ele>
   </trkpt>
   <trkpt lat="46.00620000000001" lon="11.284030000000001">
    <ele>452.72</ele>
   </trkpt>
   <trkpt lat="46.006190000000004" lon="11.284030000000001">
    <ele>452.72</ele>
   </trkpt>
   <trkpt lat="46.006" lon="11.2849">
    <ele>447.62</ele>
   </trkpt>
   <trkpt lat="46.00605" lon="11.28486">
    <ele>447.16</ele>
   </trkpt>
   <trkpt lat="46.006150000000005" lon="11.284640000000001">
    <ele>445.86</ele>
   </trkpt>
   <trkpt lat="46.00621" lon="11.28462">
    <ele>445.56</ele>
   </trkpt>
   <trkpt lat="46.00674000078782" lon="11.285059995737457">
    <ele>445.03000000000003</ele>
   </trkpt>
   <trkpt lat="46.007270000000005" lon="11.2855">
    <ele>444.33000000000004</ele>
   </trkpt>
   <trkpt lat="46.007270000000005" lon="11.285490000000001">
    <ele>444.35</ele>
   </trkpt>
   <trkpt lat="46.006740000991805" lon="11.285054995968991">
    <ele>445.03000000000003</ele>
   </trkpt>
   <trkpt lat="46.00621" lon="11.28462">
    <ele>445.56</ele>
   </trkpt>
   <trkpt lat="46.006150000000005" lon="11.284640000000001">
    <ele>445.86</ele>
   </trkpt>
   <trkpt lat="46.00605" lon="11.28486">
    <ele>447.16</ele>
   </trkpt>
   <trkpt lat="46.006" lon="11.2849">
    <ele>447.62</ele>
   </trkpt>
   <trkpt lat="46.00598" lon="11.28504">
    <ele>447.51</ele>
   </trkpt>
   <trkpt lat="46.00593001923381" lon="11.286252503254932">
    <ele>446.14000000000004</ele>
   </trkpt>
   <trkpt lat="46.00588002564593" lon="11.287465004318568">
    <ele>445.76000000000005</ele>
   </trkpt>
   <trkpt lat="46.00583001923645" lon="11.28867750319035">
    <ele>445.22</ele>
   </trkpt>
   <trkpt lat="46.00578" lon="11.289890000000002">
    <ele>445.02000000000004</ele>
   </trkpt>
   <trkpt lat="46.00574" lon="11.289980000000002">
    <ele>445.02000000000004</ele>
   </trkpt>
   <trkpt lat="46.00582000000001" lon="11.289930000000002">
    <ele>444.58000000000004</ele>
   </trkpt>
   <trkpt lat="46.00605" lon="11.289380000000001">
    <ele>444.52000000000004</ele>
   </trkpt>
   <trkpt lat="46.00636000500198" lon="11.288623341792885">
    <ele>444.34000000000003</ele>
   </trkpt>
   <trkpt lat="46.00667000501072" lon="11.28786667510502">
    <ele>444.07</ele>
   </trkpt>
   <trkpt lat="46.006980000000006" lon="11.28711">
    <ele>444.14000000000004</ele>
   </trkpt>
   <trkpt lat="46.00705000000001" lon="11.28711">
    <ele>444.14000000000004</ele>
   </trkpt>
   <trkpt lat="46.007310000000004" lon="11.287310000000002">
    <ele>443.38000000000005</ele>
   </trkpt>
   <trkpt lat="46.007630000000006" lon="11.28649">
    <ele>442.50000000000006</ele>
   </trkpt>
   <trkpt lat="46.008250000000004" lon="11.287030000000001">
    <ele>440.25</ele>
   </trkpt>
   <trkpt lat="46.008280000000006" lon="11.286990000000001">
    <ele>440.3</ele>
   </trkpt>
   <trkpt lat="46.00849" lon="11.28719">
    <ele>441.02000000000004</ele>
   </trkpt>
   <trkpt lat="46.0086" lon="11.28697">
    <ele>440.96000000000004</ele>
   </trkpt>
   <trkpt lat="46.008750000000006" lon="11.2871">
    <ele>441.76000000000005</ele>
   </trkpt>
   <trkpt lat="46.00885" lon="11.286950000000001">
    <ele>441.65000000000003</ele>
   </trkpt>
   <trkpt lat="46.00891000000001" lon="11.287030000000001">
    <ele>441.78000000000003</ele>
   </trkpt>
   <trkpt lat="46.008500000000005" lon="11.287690000000001">
    <ele>442.65000000000003</ele>
   </trkpt>
   <trkpt lat="46.008660000000006" lon="11.28777">
    <ele>442.6700000000001</ele>
   </trkpt>
   <trkpt lat="46.008770000000005" lon="11.287870000000002">
    <ele>442.72</ele>
   </trkpt>
   <trkpt lat="46.008810000000004" lon="11.287960000000002">
    <ele>442.79</ele>
   </trkpt>
   <trkpt lat="46.00883" lon="11.28836">
    <ele>443.29</ele>
   </trkpt>
   <trkpt lat="46.00913500309966" lon="11.289209995171175">
    <ele>444.83000000000004</ele>
   </trkpt>
   <trkpt lat="46.009440000000005" lon="11.29006">
    <ele>447.18</ele>
   </trkpt>
   <trkpt lat="46.0093" lon="11.29015">
    <ele>447.16</ele>
   </trkpt>
   <trkpt lat="46.00916" lon="11.2903">
    <ele>447.17</ele>
   </trkpt>
   <trkpt lat="46.008990000000004" lon="11.290550000000001">
    <ele>447.37000000000006</ele>
   </trkpt>
   <trkpt lat="46.00862" lon="11.29104">
    <ele>447.3</ele>
   </trkpt>
  </trkseg>
 </trk>
</gpx>
