<?xml version="1.0" encoding="UTF-8"?>
<gpx version="1.1" creator="Muflones Trail Running Club" xmlns="http://www.topografix.com/GPX/1/1">
 <metadata>
  <name>Sentiero 618 2025</name>
  <link href="https://muflones.github.io"><text>Muflones Trail Running Club</text></link>
 </metadata>
 <trk><name>Sentiero 618 2025</name>
  <trkseg>
   <trkpt lat="46.073549" lon="10.996994"><ele>378.4</ele></trkpt>
   <trkpt lat="46.073869" lon="10.997764"><ele>378.4</ele></trkpt>
   <trkpt lat="46.073939" lon="10.997926"><ele>378.4</ele></trkpt>
   <trkpt lat="46.074002" lon="10.998078"><ele>378.4</ele></trkpt>
   <trkpt lat="46.074154" lon="10.998393"><ele>377.6</ele></trkpt>
   <trkpt lat="46.074277" lon="10.998535"><ele>377.2</ele></trkpt>
   <trkpt lat="46.074379" lon="10.998601"><ele>376.8</ele></trkpt>
   <trkpt lat="46.074542" lon="10.998665"><ele>376.3</ele></trkpt>
   <trkpt lat="46.074649" lon="10.998662"><ele>376.0</ele></trkpt>
   <trkpt lat="46.075181" lon="10.998119"><ele>374.1</ele></trkpt>
   <trkpt lat="46.075223" lon="10.998187"><ele>373.9</ele></trkpt>
   <trkpt lat="46.075451" lon="10.998430"><ele>373.0</ele></trkpt>
   <trkpt lat="46.075466" lon="10.998398"><ele>373.0</ele></trkpt>
   <trkpt lat="46.075626" lon="10.998569"><ele>373.4</ele></trkpt>
   <trkpt lat="46.075748" lon="10.998700"><ele>373.6</ele></trkpt>
   <trkpt lat="46.075729" lon="10.998736"><ele>373.6</ele></trkpt>
   <trkpt lat="46.075714" lon="10.998766"><ele>373.7</ele></trkpt>
   <trkpt lat="46.075853" lon="10.998836"><ele>373.9</ele></trkpt>
   <trkpt lat="46.075973" lon="10.998962"><ele>374.2</ele></trkpt>
   <trkpt lat="46.076487" lon="10.999466"><ele>375.2</ele></trkpt>
   <trkpt lat="46.076797" lon="10.999811"><ele>375.8</ele></trkpt>
   <trkpt lat="46.076979" lon="11.000348"><ele>377.7</ele></trkpt>
   <trkpt lat="46.077299" lon="11.000532"><ele>379.5</ele></trkpt>
   <trkpt lat="46.077632" lon="11.000764"><ele>381.4</ele></trkpt>
   <trkpt lat="46.077996" lon="11.001011"><ele>383.5</ele></trkpt>
   <trkpt lat="46.078140" lon="11.001070"><ele>384.3</ele></trkpt>
   <trkpt lat="46.077958" lon="11.001247"><ele>385.4</ele></trkpt>
   <trkpt lat="46.077560" lon="11.001756"><ele>388.0</ele></trkpt>
   <trkpt lat="46.077250" lon="11.001738"><ele>389.5</ele></trkpt>
   <trkpt lat="46.077078" lon="11.001692"><ele>390.3</ele></trkpt>
   <trkpt lat="46.076501" lon="11.001470"><ele>393.2</ele></trkpt>
   <trkpt lat="46.076283" lon="11.001427"><ele>394.4</ele></trkpt>
   <trkpt lat="46.076006" lon="11.001452"><ele>396.4</ele></trkpt>
   <trkpt lat="46.075988" lon="11.001526"><ele>396.8</ele></trkpt>
   <trkpt lat="46.076031" lon="11.001862"><ele>398.5</ele></trkpt>
   <trkpt lat="46.075989" lon="11.001910"><ele>398.9</ele></trkpt>
   <trkpt lat="46.075557" lon="11.001650"><ele>402.2</ele></trkpt>
   <trkpt lat="46.075358" lon="11.001577"><ele>403.7</ele></trkpt>
   <trkpt lat="46.075182" lon="11.001602"><ele>404.9</ele></trkpt>
   <trkpt lat="46.075075" lon="11.001554"><ele>405.7</ele></trkpt>
   <trkpt lat="46.074951" lon="11.001532"><ele>406.6</ele></trkpt>
   <trkpt lat="46.074666" lon="11.001752"><ele>411.7</ele></trkpt>
   <trkpt lat="46.074601" lon="11.001757"><ele>412.7</ele></trkpt>
   <trkpt lat="46.074133" lon="11.001429"><ele>421.0</ele></trkpt>
   <trkpt lat="46.073716" lon="11.001426"><ele>427.7</ele></trkpt>
   <trkpt lat="46.073537" lon="11.001292"><ele>430.9</ele></trkpt>
   <trkpt lat="46.073395" lon="11.001335"><ele>433.3</ele></trkpt>
   <trkpt lat="46.073386" lon="11.001544"><ele>435.6</ele></trkpt>
   <trkpt lat="46.073395" lon="11.001335"><ele>438.1</ele></trkpt>
   <trkpt lat="46.073324" lon="11.001331"><ele>439.4</ele></trkpt>
   <trkpt lat="46.073069" lon="11.001130"><ele>444.5</ele></trkpt>
   <trkpt lat="46.073043" lon="11.001049"><ele>445.6</ele></trkpt>
   <trkpt lat="46.073033" lon="11.000871"><ele>447.8</ele></trkpt>
   <trkpt lat="46.072990" lon="11.000742"><ele>449.5</ele></trkpt>
   <trkpt lat="46.072930" lon="11.000693"><ele>450.7</ele></trkpt>
   <trkpt lat="46.072812" lon="11.000671"><ele>452.8</ele></trkpt>
   <trkpt lat="46.072598" lon="11.000530"><ele>456.9</ele></trkpt>
   <trkpt lat="46.072366" lon="11.000498"><ele>461.0</ele></trkpt>
   <trkpt lat="46.072037" lon="11.000314"><ele>467.3</ele></trkpt>
   <trkpt lat="46.071650" lon="11.000174"><ele>476.4</ele></trkpt>
   <trkpt lat="46.071374" lon="11.000124"><ele>482.8</ele></trkpt>
   <trkpt lat="46.071272" lon="11.000079"><ele>485.3</ele></trkpt>
   <trkpt lat="46.071151" lon="11.000082"><ele>488.1</ele></trkpt>
   <trkpt lat="46.070651" lon="10.999820"><ele>500.3</ele></trkpt>
   <trkpt lat="46.070220" lon="10.999795"><ele>510.6</ele></trkpt>
   <trkpt lat="46.070103" lon="10.999738"><ele>514.0</ele></trkpt>
   <trkpt lat="46.069818" lon="10.999702"><ele>521.9</ele></trkpt>
   <trkpt lat="46.069488" lon="10.999695"><ele>531.0</ele></trkpt>
   <trkpt lat="46.069007" lon="10.999561"><ele>544.5</ele></trkpt>
   <trkpt lat="46.068650" lon="10.999394"><ele>554.8</ele></trkpt>
   <trkpt lat="46.067935" lon="10.999330"><ele>570.7</ele></trkpt>
   <trkpt lat="46.067576" lon="10.999136"><ele>578.8</ele></trkpt>
   <trkpt lat="46.066978" lon="10.999118"><ele>591.4</ele></trkpt>
   <trkpt lat="46.066660" lon="10.999164"><ele>598.5</ele></trkpt>
   <trkpt lat="46.066077" lon="10.998968"><ele>613.4</ele></trkpt>
   <trkpt lat="46.065982" lon="10.999022"><ele>615.9</ele></trkpt>
   <trkpt lat="46.065916" lon="10.999318"><ele>621.2</ele></trkpt>
   <trkpt lat="46.065810" lon="10.999483"><ele>625.1</ele></trkpt>
   <trkpt lat="46.065722" lon="10.999567"><ele>627.7</ele></trkpt>
   <trkpt lat="46.065480" lon="10.999577"><ele>633.8</ele></trkpt>
   <trkpt lat="46.065241" lon="10.999798"><ele>640.8</ele></trkpt>
   <trkpt lat="46.065123" lon="10.999873"><ele>643.2</ele></trkpt>
   <trkpt lat="46.064993" lon="10.999900"><ele>645.6</ele></trkpt>
   <trkpt lat="46.064909" lon="10.999989"><ele>647.5</ele></trkpt>
   <trkpt lat="46.064906" lon="11.000084"><ele>648.8</ele></trkpt>
   <trkpt lat="46.064927" lon="11.000108"><ele>649.3</ele></trkpt>
   <trkpt lat="46.065136" lon="11.000233"><ele>653.5</ele></trkpt>
   <trkpt lat="46.065164" lon="11.000368"><ele>655.3</ele></trkpt>
   <trkpt lat="46.065311" lon="11.000652"><ele>659.9</ele></trkpt>
   <trkpt lat="46.065377" lon="11.000725"><ele>661.4</ele></trkpt>
   <trkpt lat="46.065389" lon="11.001122"><ele>666.5</ele></trkpt>
   <trkpt lat="46.065362" lon="11.001183"><ele>667.5</ele></trkpt>
   <trkpt lat="46.065226" lon="11.001228"><ele>670.1</ele></trkpt>
   <trkpt lat="46.065147" lon="11.001217"><ele>671.6</ele></trkpt>
   <trkpt lat="46.064836" lon="11.001032"><ele>673.4</ele></trkpt>
   <trkpt lat="46.064462" lon="11.000891"><ele>671.9</ele></trkpt>
   <trkpt lat="46.064189" lon="11.000741"><ele>670.9</ele></trkpt>
   <trkpt lat="46.063940" lon="11.000581"><ele>669.9</ele></trkpt>
   <trkpt lat="46.063789" lon="11.000434"><ele>669.2</ele></trkpt>
   <trkpt lat="46.063598" lon="11.000096"><ele>668.1</ele></trkpt>
   <trkpt lat="46.063394" lon="10.999910"><ele>666.4</ele></trkpt>
   <trkpt lat="46.063178" lon="10.999830"><ele>663.3</ele></trkpt>
   <trkpt lat="46.062985" lon="10.999703"><ele>660.3</ele></trkpt>
   <trkpt lat="46.062736" lon="10.999554"><ele>656.6</ele></trkpt>
   <trkpt lat="46.062554" lon="10.999435"><ele>653.8</ele></trkpt>
   <trkpt lat="46.062445" lon="10.999306"><ele>651.9</ele></trkpt>
   <trkpt lat="46.062300" lon="10.998908"><ele>647.5</ele></trkpt>
   <trkpt lat="46.062229" lon="10.998765"><ele>645.8</ele></trkpt>
   <trkpt lat="46.062156" lon="10.998688"><ele>644.6</ele></trkpt>
   <trkpt lat="46.061871" lon="10.998541"><ele>639.8</ele></trkpt>
   <trkpt lat="46.061502" lon="10.998151"><ele>631.9</ele></trkpt>
   <trkpt lat="46.060984" lon="10.997770"><ele>621.8</ele></trkpt>
   <trkpt lat="46.060778" lon="10.997660"><ele>618.0</ele></trkpt>
   <trkpt lat="46.060565" lon="10.997476"><ele>613.6</ele></trkpt>
   <trkpt lat="46.060300" lon="10.997538"><ele>609.5</ele></trkpt>
   <trkpt lat="46.060133" lon="10.997449"><ele>607.1</ele></trkpt>
   <trkpt lat="46.058981" lon="10.997005"><ele>591.3</ele></trkpt>
   <trkpt lat="46.058777" lon="10.996960"><ele>588.5</ele></trkpt>
   <trkpt lat="46.058445" lon="10.996907"><ele>584.8</ele></trkpt>
   <trkpt lat="46.057575" lon="10.996845"><ele>576.0</ele></trkpt>
   <trkpt lat="46.057249" lon="10.996774"><ele>572.6</ele></trkpt>
   <trkpt lat="46.056916" lon="10.996623"><ele>569.1</ele></trkpt>
   <trkpt lat="46.056595" lon="10.996543"><ele>566.3</ele></trkpt>
   <trkpt lat="46.056404" lon="10.996436"><ele>564.5</ele></trkpt>
   <trkpt lat="46.056256" lon="10.996303"><ele>563.1</ele></trkpt>
   <trkpt lat="46.055979" lon="10.996330"><ele>560.7</ele></trkpt>
   <trkpt lat="46.055597" lon="10.996259"><ele>557.4</ele></trkpt>
   <trkpt lat="46.055381" lon="10.996303"><ele>555.5</ele></trkpt>
   <trkpt lat="46.055036" lon="10.996276"><ele>552.7</ele></trkpt>
   <trkpt lat="46.054980" lon="10.996214"><ele>552.1</ele></trkpt>
   <trkpt lat="46.054863" lon="10.996179"><ele>551.2</ele></trkpt>
   <trkpt lat="46.054512" lon="10.996285"><ele>548.5</ele></trkpt>
   <trkpt lat="46.054302" lon="10.996205"><ele>546.9</ele></trkpt>
   <trkpt lat="46.053994" lon="10.996179"><ele>544.5</ele></trkpt>
   <trkpt lat="46.053593" lon="10.996214"><ele>541.5</ele></trkpt>
   <trkpt lat="46.053457" lon="10.996161"><ele>540.4</ele></trkpt>
   <trkpt lat="46.053026" lon="10.996134"><ele>536.5</ele></trkpt>
   <trkpt lat="46.052243" lon="10.996223"><ele>529.1</ele></trkpt>
   <trkpt lat="46.051700" lon="10.996054"><ele>524.0</ele></trkpt>
   <trkpt lat="46.051460" lon="10.996081"><ele>521.5</ele></trkpt>
   <trkpt lat="46.051038" lon="10.996011"><ele>516.8</ele></trkpt>
   <trkpt lat="46.051053" lon="10.995820"><ele>515.3</ele></trkpt>
   <trkpt lat="46.051040" lon="10.995778"><ele>515.0</ele></trkpt>
   <trkpt lat="46.051034" lon="10.995737"><ele>514.7</ele></trkpt>
   <trkpt lat="46.051037" lon="10.995706"><ele>514.4</ele></trkpt>
   <trkpt lat="46.051043" lon="10.995680"><ele>514.2</ele></trkpt>
   <trkpt lat="46.051072" lon="10.995664"><ele>513.9</ele></trkpt>
   <trkpt lat="46.051098" lon="10.995680"><ele>513.6</ele></trkpt>
   <trkpt lat="46.051120" lon="10.995706"><ele>513.2</ele></trkpt>
   <trkpt lat="46.051149" lon="10.995731"><ele>512.9</ele></trkpt>
   <trkpt lat="46.051162" lon="10.995751"><ele>512.7</ele></trkpt>
   <trkpt lat="46.051178" lon="10.995770"><ele>512.4</ele></trkpt>
   <trkpt lat="46.051194" lon="10.995786"><ele>512.2</ele></trkpt>
   <trkpt lat="46.051229" lon="10.995805"><ele>511.8</ele></trkpt>
   <trkpt lat="46.051261" lon="10.995829"><ele>511.4</ele></trkpt>
   <trkpt lat="46.051290" lon="10.995830"><ele>511.1</ele></trkpt>
   <trkpt lat="46.051318" lon="10.995816"><ele>510.8</ele></trkpt>
   <trkpt lat="46.051350" lon="10.995800"><ele>510.4</ele></trkpt>
   <trkpt lat="46.051373" lon="10.995778"><ele>510.1</ele></trkpt>
   <trkpt lat="46.051392" lon="10.995774"><ele>509.9</ele></trkpt>
   <trkpt lat="46.051430" lon="10.995746"><ele>509.4</ele></trkpt>
   <trkpt lat="46.051446" lon="10.995731"><ele>509.2</ele></trkpt>
   <trkpt lat="46.051482" lon="10.995715"><ele>508.8</ele></trkpt>
   <trkpt lat="46.051507" lon="10.995704"><ele>508.5</ele></trkpt>
   <trkpt lat="46.051530" lon="10.995698"><ele>508.2</ele></trkpt>
   <trkpt lat="46.051555" lon="10.995689"><ele>508.0</ele></trkpt>
   <trkpt lat="46.051578" lon="10.995678"><ele>507.7</ele></trkpt>
   <trkpt lat="46.051610" lon="10.995671"><ele>507.3</ele></trkpt>
   <trkpt lat="46.051635" lon="10.995669"><ele>507.1</ele></trkpt>
   <trkpt lat="46.051664" lon="10.995666"><ele>506.7</ele></trkpt>
   <trkpt lat="46.051693" lon="10.995660"><ele>506.4</ele></trkpt>
   <trkpt lat="46.051725" lon="10.995651"><ele>506.1</ele></trkpt>
   <trkpt lat="46.051750" lon="10.995642"><ele>505.8</ele></trkpt>
   <trkpt lat="46.051776" lon="10.995642"><ele>505.5</ele></trkpt>
   <trkpt lat="46.051795" lon="10.995626"><ele>505.2</ele></trkpt>
   <trkpt lat="46.051814" lon="10.995606"><ele>505.0</ele></trkpt>
   <trkpt lat="46.051818" lon="10.995580"><ele>504.8</ele></trkpt>
   <trkpt lat="46.051818" lon="10.995553"><ele>504.6</ele></trkpt>
   <trkpt lat="46.051808" lon="10.995517"><ele>504.3</ele></trkpt>
   <trkpt lat="46.051776" lon="10.995528"><ele>503.9</ele></trkpt>
   <trkpt lat="46.051747" lon="10.995522"><ele>503.6</ele></trkpt>
   <trkpt lat="46.051725" lon="10.995530"><ele>503.4</ele></trkpt>
   <trkpt lat="46.051699" lon="10.995535"><ele>503.2</ele></trkpt>
   <trkpt lat="46.051677" lon="10.995552"><ele>503.0</ele></trkpt>
   <trkpt lat="46.051648" lon="10.995543"><ele>502.8</ele></trkpt>
   <trkpt lat="46.051619" lon="10.995528"><ele>502.6</ele></trkpt>
   <trkpt lat="46.051606" lon="10.995503"><ele>502.5</ele></trkpt>
   <trkpt lat="46.051578" lon="10.995482"><ele>502.3</ele></trkpt>
   <trkpt lat="46.051565" lon="10.995459"><ele>502.1</ele></trkpt>
   <trkpt lat="46.051549" lon="10.995432"><ele>502.0</ele></trkpt>
   <trkpt lat="46.051530" lon="10.995402"><ele>501.8</ele></trkpt>
   <trkpt lat="46.051517" lon="10.995377"><ele>501.6</ele></trkpt>
   <trkpt lat="46.051498" lon="10.995347"><ele>501.4</ele></trkpt>
   <trkpt lat="46.051466" lon="10.995131"><ele>500.4</ele></trkpt>
   <trkpt lat="46.051387" lon="10.995143"><ele>499.8</ele></trkpt>
   <trkpt lat="46.051337" lon="10.995113"><ele>499.5</ele></trkpt>
   <trkpt lat="46.051195" lon="10.994748"><ele>497.5</ele></trkpt>
   <trkpt lat="46.050755" lon="10.994310"><ele>493.9</ele></trkpt>
   <trkpt lat="46.050400" lon="10.993857"><ele>490.0</ele></trkpt>
   <trkpt lat="46.050362" lon="10.993725"><ele>488.5</ele></trkpt>
   <trkpt lat="46.050364" lon="10.993519"><ele>486.4</ele></trkpt>
   <trkpt lat="46.050320" lon="10.993264"><ele>483.7</ele></trkpt>
   <trkpt lat="46.050266" lon="10.993156"><ele>482.3</ele></trkpt>
   <trkpt lat="46.049902" lon="10.992789"><ele>475.7</ele></trkpt>
   <trkpt lat="46.049801" lon="10.992662"><ele>473.7</ele></trkpt>
   <trkpt lat="46.049723" lon="10.992387"><ele>470.6</ele></trkpt>
   <trkpt lat="46.049593" lon="10.992121"><ele>467.2</ele></trkpt>
   <trkpt lat="46.049504" lon="10.991742"><ele>463.2</ele></trkpt>
   <trkpt lat="46.049507" lon="10.991583"><ele>461.7</ele></trkpt>
   <trkpt lat="46.049492" lon="10.991428"><ele>460.2</ele></trkpt>
   <trkpt lat="46.049547" lon="10.991412"><ele>459.4</ele></trkpt>
   <trkpt lat="46.049600" lon="10.991121"><ele>456.5</ele></trkpt>
   <trkpt lat="46.049641" lon="10.990683"><ele>452.3</ele></trkpt>
   <trkpt lat="46.049644" lon="10.990209"><ele>447.7</ele></trkpt>
   <trkpt lat="46.049669" lon="10.990014"><ele>445.8</ele></trkpt>
   <trkpt lat="46.049756" lon="10.989874"><ele>444.0</ele></trkpt>
   <trkpt lat="46.049950" lon="10.989841"><ele>441.3</ele></trkpt>
   <trkpt lat="46.050346" lon="10.990054"><ele>440.0</ele></trkpt>
   <trkpt lat="46.050900" lon="10.990404"><ele>441.0</ele></trkpt>
   <trkpt lat="46.051150" lon="10.990720"><ele>441.5</ele></trkpt>
   <trkpt lat="46.051301" lon="10.991081"><ele>442.0</ele></trkpt>
   <trkpt lat="46.051469" lon="10.991324"><ele>442.4</ele></trkpt>
   <trkpt lat="46.051873" lon="10.991500"><ele>439.1</ele></trkpt>
   <trkpt lat="46.052149" lon="10.991541"><ele>436.8</ele></trkpt>
   <trkpt lat="46.052179" lon="10.991533"><ele>436.5</ele></trkpt>
   <trkpt lat="46.052192" lon="10.991485"><ele>436.2</ele></trkpt>
   <trkpt lat="46.052039" lon="10.991062"><ele>433.4</ele></trkpt>
   <trkpt lat="46.051897" lon="10.990798"><ele>431.4</ele></trkpt>
   <trkpt lat="46.051850" lon="10.990709"><ele>430.7</ele></trkpt>
   <trkpt lat="46.051653" lon="10.990231"><ele>427.5</ele></trkpt>
   <trkpt lat="46.051625" lon="10.990069"><ele>426.5</ele></trkpt>
   <trkpt lat="46.051681" lon="10.990065"><ele>426.0</ele></trkpt>
   <trkpt lat="46.052013" lon="10.990227"><ele>423.2</ele></trkpt>
   <trkpt lat="46.052269" lon="10.990415"><ele>420.8</ele></trkpt>
   <trkpt lat="46.052369" lon="10.990415"><ele>420.0</ele></trkpt>
   <trkpt lat="46.052462" lon="10.990433"><ele>419.2</ele></trkpt>
   <trkpt lat="46.052606" lon="10.990402"><ele>418.1</ele></trkpt>
   <trkpt lat="46.052695" lon="10.990427"><ele>417.3</ele></trkpt>
   <trkpt lat="46.052749" lon="10.990546"><ele>416.5</ele></trkpt>
   <trkpt lat="46.053056" lon="10.991020"><ele>412.8</ele></trkpt>
   <trkpt lat="46.053231" lon="10.991163"><ele>412.0</ele></trkpt>
   <trkpt lat="46.053279" lon="10.991368"><ele>411.5</ele></trkpt>
   <trkpt lat="46.053391" lon="10.991490"><ele>411.1</ele></trkpt>
   <trkpt lat="46.053991" lon="10.991840"><ele>409.1</ele></trkpt>
   <trkpt lat="46.054026" lon="10.991907"><ele>409.0</ele></trkpt>
   <trkpt lat="46.053918" lon="10.992682"><ele>407.3</ele></trkpt>
   <trkpt lat="46.053929" lon="10.992763"><ele>407.1</ele></trkpt>
   <trkpt lat="46.053970" lon="10.992835"><ele>406.9</ele></trkpt>
   <trkpt lat="46.054177" lon="10.992934"><ele>406.3</ele></trkpt>
   <trkpt lat="46.054996" lon="10.993133"><ele>403.7</ele></trkpt>
   <trkpt lat="46.055177" lon="10.993213"><ele>403.1</ele></trkpt>
   <trkpt lat="46.055290" lon="10.993310"><ele>402.6</ele></trkpt>
   <trkpt lat="46.055398" lon="10.993339"><ele>402.3</ele></trkpt>
   <trkpt lat="46.055629" lon="10.993334"><ele>401.6</ele></trkpt>
   <trkpt lat="46.055897" lon="10.993278"><ele>401.5</ele></trkpt>
   <trkpt lat="46.055971" lon="10.993197"><ele>401.6</ele></trkpt>
   <trkpt lat="46.056135" lon="10.993342"><ele>401.8</ele></trkpt>
   <trkpt lat="46.056278" lon="10.993417"><ele>401.9</ele></trkpt>
   <trkpt lat="46.056654" lon="10.993554"><ele>402.2</ele></trkpt>
   <trkpt lat="46.056894" lon="10.993597"><ele>402.4</ele></trkpt>
   <trkpt lat="46.056986" lon="10.993693"><ele>402.5</ele></trkpt>
   <trkpt lat="46.057084" lon="10.993903"><ele>402.7</ele></trkpt>
   <trkpt lat="46.056673" lon="10.993918"><ele>402.3</ele></trkpt>
   <trkpt lat="46.057084" lon="10.993903"><ele>400.8</ele></trkpt>
   <trkpt lat="46.057295" lon="10.993900"><ele>400.0</ele></trkpt>
   <trkpt lat="46.057380" lon="10.993956"><ele>399.7</ele></trkpt>
   <trkpt lat="46.057494" lon="10.993935"><ele>399.2</ele></trkpt>
   <trkpt lat="46.057734" lon="10.994074"><ele>398.3</ele></trkpt>
   <trkpt lat="46.058566" lon="10.994107"><ele>397.1</ele></trkpt>
   <trkpt lat="46.058599" lon="10.994097"><ele>397.2</ele></trkpt>
   <trkpt lat="46.058752" lon="10.993903"><ele>397.7</ele></trkpt>
   <trkpt lat="46.058830" lon="10.993776"><ele>398.0</ele></trkpt>
   <trkpt lat="46.058895" lon="10.994001"><ele>398.4</ele></trkpt>
   <trkpt lat="46.058981" lon="10.994170"><ele>398.8</ele></trkpt>
   <trkpt lat="46.059209" lon="10.994391"><ele>399.5</ele></trkpt>
   <trkpt lat="46.059487" lon="10.994542"><ele>400.3</ele></trkpt>
   <trkpt lat="46.060254" lon="10.994740"><ele>410.7</ele></trkpt>
   <trkpt lat="46.060301" lon="10.994825"><ele>412.1</ele></trkpt>
   <trkpt lat="46.060376" lon="10.994882"><ele>413.7</ele></trkpt>
   <trkpt lat="46.061096" lon="10.995193"><ele>427.8</ele></trkpt>
   <trkpt lat="46.061315" lon="10.995221"><ele>431.9</ele></trkpt>
   <trkpt lat="46.061485" lon="10.995248"><ele>435.1</ele></trkpt>
   <trkpt lat="46.061622" lon="10.995366"><ele>437.5</ele></trkpt>
   <trkpt lat="46.061879" lon="10.995401"><ele>441.5</ele></trkpt>
   <trkpt lat="46.062110" lon="10.995543"><ele>445.3</ele></trkpt>
   <trkpt lat="46.062552" lon="10.995546"><ele>452.0</ele></trkpt>
   <trkpt lat="46.062678" lon="10.995574"><ele>454.0</ele></trkpt>
   <trkpt lat="46.063123" lon="10.995793"><ele>461.2</ele></trkpt>
   <trkpt lat="46.063526" lon="10.995931"><ele>462.7</ele></trkpt>
   <trkpt lat="46.064035" lon="10.996008"><ele>463.5</ele></trkpt>
   <trkpt lat="46.064339" lon="10.996012"><ele>463.9</ele></trkpt>
   <trkpt lat="46.064555" lon="10.995992"><ele>464.2</ele></trkpt>
   <trkpt lat="46.064612" lon="10.995964"><ele>464.3</ele></trkpt>
   <trkpt lat="46.064695" lon="10.995922"><ele>464.4</ele></trkpt>
   <trkpt lat="46.064872" lon="10.995929"><ele>464.6</ele></trkpt>
   <trkpt lat="46.065327" lon="10.996052"><ele>460.6</ele></trkpt>
   <trkpt lat="46.065886" lon="10.996360"><ele>453.8</ele></trkpt>
   <trkpt lat="46.066153" lon="10.996581"><ele>450.2</ele></trkpt>
   <trkpt lat="46.066447" lon="10.996652"><ele>446.8</ele></trkpt>
   <trkpt lat="46.066535" lon="10.996649"><ele>445.8</ele></trkpt>
   <trkpt lat="46.066661" lon="10.996577"><ele>444.3</ele></trkpt>
   <trkpt lat="46.066764" lon="10.996549"><ele>442.6</ele></trkpt>
   <trkpt lat="46.066831" lon="10.996435"><ele>440.9</ele></trkpt>
   <trkpt lat="46.066821" lon="10.996065"><ele>436.6</ele></trkpt>
   <trkpt lat="46.066804" lon="10.996023"><ele>436.1</ele></trkpt>
   <trkpt lat="46.066819" lon="10.995940"><ele>435.1</ele></trkpt>
   <trkpt lat="46.066898" lon="10.996003"><ele>433.6</ele></trkpt>
   <trkpt lat="46.066975" lon="10.996019"><ele>432.4</ele></trkpt>
   <trkpt lat="46.067011" lon="10.995995"><ele>431.7</ele></trkpt>
   <trkpt lat="46.067020" lon="10.995938"><ele>431.0</ele></trkpt>
   <trkpt lat="46.066904" lon="10.995797"><ele>428.5</ele></trkpt>
   <trkpt lat="46.066907" lon="10.995741"><ele>427.9</ele></trkpt>
   <trkpt lat="46.066935" lon="10.995721"><ele>427.4</ele></trkpt>
   <trkpt lat="46.067279" lon="10.995878"><ele>421.5</ele></trkpt>
   <trkpt lat="46.067346" lon="10.996006"><ele>419.6</ele></trkpt>
   <trkpt lat="46.067433" lon="10.996084"><ele>417.9</ele></trkpt>
   <trkpt lat="46.067466" lon="10.996165"><ele>416.9</ele></trkpt>
   <trkpt lat="46.067509" lon="10.996152"><ele>416.1</ele></trkpt>
   <trkpt lat="46.067617" lon="10.995981"><ele>414.2</ele></trkpt>
   <trkpt lat="46.067662" lon="10.995995"><ele>413.8</ele></trkpt>
   <trkpt lat="46.067758" lon="10.996277"><ele>412.3</ele></trkpt>
   <trkpt lat="46.067954" lon="10.996384"><ele>410.8</ele></trkpt>
   <trkpt lat="46.068176" lon="10.996647"><ele>408.8</ele></trkpt>
   <trkpt lat="46.068275" lon="10.996700"><ele>408.1</ele></trkpt>
   <trkpt lat="46.068951" lon="10.996862"><ele>403.3</ele></trkpt>
   <trkpt lat="46.069946" lon="10.997245"><ele>396.1</ele></trkpt>
   <trkpt lat="46.070209" lon="10.997348"><ele>394.1</ele></trkpt>
   <trkpt lat="46.071367" lon="10.997626"><ele>387.8</ele></trkpt>
   <trkpt lat="46.071948" lon="10.997837"><ele>385.8</ele></trkpt>
   <trkpt lat="46.072143" lon="10.997720"><ele>385.2</ele></trkpt>
   <trkpt lat="46.072274" lon="10.997719"><ele>384.7</ele></trkpt>
   <trkpt lat="46.072965" lon="10.998008"><ele>383.6</ele></trkpt>
   <trkpt lat="46.073115" lon="10.998074"><ele>383.6</ele></trkpt>
   <trkpt lat="46.073438" lon="10.998204"><ele>383.6</ele></trkpt>
   <trkpt lat="46.073706" lon="10.998276"><ele>383.6</ele></trkpt>
   <trkpt lat="46.073786" lon="10.998269"><ele>383.6</ele></trkpt>
   <trkpt lat="46.074002" lon="10.998078"><ele>383.6</ele></trkpt>
   <trkpt lat="46.073939" lon="10.997926"><ele>383.6</ele></trkpt>
   <trkpt lat="46.073869" lon="10.997764"><ele>383.6</ele></trkpt>
   <trkpt lat="46.073549" lon="10.996994"><ele>383.6</ele></trkpt>
  </trkseg>
 </trk>
</gpx>
